Name,City,Street,Housenumber,State,Postcode,Latitude,Longitude,Emergency,Speciality,Phone,Website
Shanti Hospital,,,,,,12.9235041,77.5857517,,,+91-8660870721,
Narayana Hrudayalaya Dental Clinic,,Outer Ring Road,,,,12.9155759,77.6349897,,,+91-9135395154,
Dr Ganesh Medical and Diabetic Clinic,,,,,,12.9129006,77.6419101,,,+91-8913715517,
JBS Hospital,,Kanakapura Road,,,,12.9207173,77.5745968,,,+91-6234143260,
Jayanagar heart Centre,,,,,,12.9231684,77.584433,,,+91-6582013026,
Sri Vijayalakshmi Pragathi Hospital,,,,,,13.0371728,77.6409543,,,+91-7818432182,
Sathya Hospital,,,,,,13.0185503,77.6364728,,,+91-8342981147,
Chord Road Hospital Pvt Ltd,"Basaveshwara Nagar, Bangalore",West of Chord Road (LIC Colony),100,Karnataka,560079,12.9981215,77.5404836,,multi speciality,+91-80-23225858;+91-80-23225868;+91-80-23225878,http://www.chordroadhospitalent.com/
Pristline Hospital,"Basaveshwara Nagar, Bangalore",Modi Hospital Road (West of Chord Road),877,,560079,12.9978931,77.5436127,,,+91-80-41354444;+91-80-51270776,http://www.pristinehospitals.com/
"Bengaluru Hospital, Susruta Medical Aid AndResearch Home Limited",,Rashtriya Vidyalaya Road,,Karnataka,560001,12.9376734,77.5802836,,,+91-7790734679,http://dpal.kar.nic.in/Kanunu%20padakosha%20PDF%20Files/Recognised%20Hospitals.pdf
Manipal Northside Hospital,bangalore,"11th Main Road, Opp Railway Station, Malleswaram",71,Karnataka,560003,13.0011275,77.5639285,,,080 2222 1111,
Government Primary Health Centre,,,,,,12.9503234,77.6162619,,,+91-8752666177,
Divakars speciality Hospital,,,,Karnataka,560078,12.9100629,77.5924585,,General Gynecology; Obstetrics; Prenatal Care; nulife clinic; Laboratory Testing and In-Office Surgery; Medical Spa for Women; Ophthalmology,+91-9495126588,http://www.healthforher.in/
BMTC Hospital,,,,,,12.9234317,77.5923374,,,+91-6342396481,
Ramakrishna Nursing Home and Hospital,,,,,,12.9364329,77.583477,,,+91-7231638803,
Sri Vinayaka Poly Clinic,bangalore,"80 Feet Road, SBM Colony, Near-Bank Colony Bus Stop, Banashankari 1st Stage",8/45,,560050,12.939058,77.5510802,,,080 2672 8455,
RMV Hospital,,,,,,13.0322788,77.576876,yes,,+91-7628104476,
Mallya Audikesh Diagnostics Center,Bangalore,Infantry Road,55,,560001,12.9815051,77.6011944,,,+918022868423,http://www.medinovaindia.com
Mallige Medical Centre,Bangalore,"Crescent Rd,Nehru Nagar,Gandhi Nagar",31/32,,560001,12.985247,77.5803846,,,080 2220 3333,https://www.mallige.com/
Devine Hospital,,,,Karnataka,560046,13.0038999,77.6039313,,,+91-7225851907,
Lalbagh Nursing Home,,Siddapura Road,,,,12.9452313,77.5861734,,,+91-9007841433,
Government Maternity Hospital,,,,,,12.9988604,77.5817424,,,+91-8918155767,
Nova Hospital,,Ramana Maharshi Road,,,,13.0073436,77.5837111,,,+91-7246621525,
Soujanya Clinic,,,,,,12.9681189,77.54325,no,,+91-9765745497,
Kanva Diagnostics Collection Centre,,,,,,12.967291,77.5429164,,,+91-9206690042,
Srinivas Clinic,,29 Main,,,,12.9073391,77.5830655,no,,+91-6165142192,
Unknown Hospital,,,,,,13.0043642,77.5652959,,,+91-9123463024,
Metro Hospital,,,,,,12.8915893,77.560715,yes,,+91-6299287399,
ESI Hospital,,,,,,12.995242,77.6523255,,,+91-6356547818,
SDS Tuberculosis Research Centre and Rajiv Gandhi Institute of Chest diseases,,,,,,12.9367955,77.5907094,no,,+91-7890781887,
Maiya Multispecialty Hospital,,,,Karnataka,560011,12.942614,77.5854533,,,+91-9579885882,
Narayana Netralaya,,Castle Street,37,Karnataka,560025,12.9671401,77.6094485,,,+91-6805551626,
"Vasan Eye Care Hospital, Nagarabhavi",,,,Karnataka,560091,12.9746134,77.5129757,,,+91-8716602205,http://www.vasaneye.in/
Rc Hospital,,,,Karnataka,560098,12.930936,77.5153776,,,+91-9117019876,
Veturi Child Health Centre,,,,,,12.9263226,77.5156579,,,+91-6501290830,
Guru Kripa Clinic,,,,,,13.0349833,77.5676844,,,+91-9660774372,
Chirag Hospital and Maternity Center,,17th Main Road,,Karnataka,560078,12.9126298,77.5913594,,,+91-7989846596,
Udhbhava Hospital,,,,Karnataka,560085,12.9256842,77.5489346,yes,,+91-8909272010,
DG Hospital,,,,Karnataka,560073,12.9206648,77.5598673,yes,,+91-9519959627,http://dpal.kar.nic.in/Kanunu%20padakosha%20PDF%20Files/Recognised%20Hospitals.pdf
Srinivasa Nursing Home,,,,,,12.9423039,77.6174893,,,+91-6186751728,
Kangila Clinic,,,,,,12.9336501,77.5660602,yes,,+91-7511593390,
"Vasan Eye Care Hospital, Koramangala",,,,Karnataka,560095,12.9402371,77.6253403,yes,,+91-6137178538,http://www.vasaneye.in/
Asha Clinic,,13th cross,,,,12.9158901,77.6506948,,,+91-9713838761,
health nest,,,,,,12.9075992,77.6488507,,,+91-8187158212,
Amma's ENT Clinic,,,,,,13.0281613,77.5793947,,,+91-7189312270,
Krishna Specialty Clinic,,,,,,13.026721,77.5789272,,,+91-7489983112,
Seventh Day Adventist Hospital,Bengaluru,Saunders Road,,,560005,12.995625,77.6113272,,,+91-9426340477,
Srinivasa Nursing Home,,,,,,12.9965077,77.6220456,,,+91-8482215483,
Kids Care Clinic,,,,,,12.914434,77.6050207,,,+91-7993255374,
Pristine Health care,,,,,,12.9382768,77.6186753,yes,,+91-7752294735,
Prerana Dental Clinic,,,,,,12.9186845,77.630774,,,+91-6181022021,
Mamtha Health Center,,,,,,12.9180492,77.6318764,,,+91-8978191111,
Suprabha Hospital,,,,,,13.0079383,77.5469059,,,+91-9606503384,
Sangolli Nursing Home,,,,,,13.0083564,77.5469273,,,+91-7576851892,
Diacon Hospital,,,,Karnataka,560010,13.0037682,77.5498337,,,+91-6083026062,
Agarwal Eye Hospital,,,,,,12.9273417,77.6221301,,,+91-8721919610,
Sagar Dental Clinic,,,,,,12.9168875,77.6300639,,,+91-8036422232,
Venkateshwara Hospital,,Hosur road,,,,12.9257842,77.6170828,,,+91-7793263165,
Namratha Hospital,,,,,,13.0047859,77.543073,,,+91-9646429676,
Devi Eye Hospital,,,,,,12.9162576,77.6374069,,,+91-6264634506,
Mysore Hospital,,,,Karnataka,560022,13.0275337,77.5397051,,,+91-6931035648,
Jayanagar Orthopaedic Centre,,,,Karnataka,560041,12.9293288,77.5877091,no,,+91-8994574707,
Shekar Hospital,,Shyamaraja Iyengar Road,,Karnataka,560019,12.9458714,77.5675192,no,,+91-7968191520,
Punya Hospital,,,,,,13.0011459,77.5359798,yes,,+91-9476291123,
Vasan Eye Care,,Hosur road,,,,12.9102705,77.6265538,,,+91-6940818395,
Parimala Clinic,,Ayodhyarama Road,,,,12.9135707,77.5788941,,,+91-9243325312,
Karanth Speciality Hospital,,,,Karnataka,560068,12.9160081,77.6193573,yes,,+91-9233172336,
Gangothri Hospital,,Outer Ring Road,,Karnataka,560076,12.9162878,77.6138218,yes,,+91-8327198015,
Vignan Hospital,,,,,,12.9438988,77.5968766,,,+91-7811830428,https://bidsinstitution.com/
Spurthy Hospital,,,,Karnataka,560029,12.9239335,77.61116,,,+91-6475894434,
Prasad Eye Hospital,,,,,,12.9351929,77.6086817,,,+91-9976313867,
NIMHANS Screening block,,,,,,12.9387115,77.5937737,no,,+91-9686766338,
NIMHANS OPD,,,,,,12.9388056,77.5942994,,,+91-9024706554,
Manjunath Hospital,,,,Karnataka,560027,12.9483598,77.5940621,,,+91-9310392140,
Karthik Hospital,,8th Cross,,,,12.9484356,77.5942592,,,+91-8698291769,
Aswad Hospital,,Hosur road,,Karnataka,560068,12.9147871,77.6247622,,,+91-9844160768,
TSR heart care,,,,,,13.0264438,77.5933686,,,+91-6215035766,
Fortis Hospital,,,,Karnataka,560086,13.0022409,77.5490879,,,+91-8738415730,
Citi Hospital,Bangalore,Chord Road,25/91,Karnataka,560010,12.9956506,77.5510696,,,+(91)-80-23131778,
"Vasan Eye Care Hospital, Rajaji Nagar",Bengaluru,19th Cross Road,46,Karnataka,560010,12.9995223,77.5505328,,,+91-8083599817,
Ananya Hospital,,,,Karnataka,560010,12.9998205,77.55045,,Cardiology;Cosmetology;Dermatology;Diabetology;Emergency Medicine;ENT;Gastroenterology;General Medicine;General Surgery;Internal Medicine;Laparoscopic Surgery;Medical Oncology;Nephrology;Obesity;Obstetricsand Gynaecology,+91-6971651547,www.ananyahospital.org
Baptist,,,,,,12.9970915,77.5719766,,,+91-6537129673,
Shivakrupa Hospital,,,,,,12.973967,77.5479135,,,+91-9153190096,
Dr. Ambedkar Medical College Hospital,,,,,,13.0248621,77.6139585,yes,,+91-8713598609,
"Sri Maruthi hospital, Sheshadripuram",bangalore,"Link Rd, Malleswaram, Jai Bheema Nagar, Seshadripuram",67,Karnataka,560020,12.9926441,77.5742046,,,080 2344 9632,
Sunny Medicals Hospital Clinic,,,,,,12.9267954,77.6699091,yes,,+91-9628575518,
Karunya Homoeopathy Centre,,,,,,13.0307899,77.653594,no,,+91-9832694340,
Ayur Seva Hospital,,,,,,13.0148188,77.6653699,,,+91-7355639375,
Vinayaka Specialty Hospital,,,,,,12.8990004,77.6218548,no,,+91-7193010912,
Gurushree Hitech Multispeciality Hospital,,,,Karnataka,560048,12.9593144,77.5265054,yes,,+91-7338914358,
"Shobha Hospital, Bengaluru Urban",,,,Karnataka,560040,12.9755854,77.5313495,no,,+91-7918435692,
"Gayathri Hospital, Bengaluru Urban",,,,Karnataka,560040,12.9744053,77.5426819,yes,,+91-6024411439,http://dpal.kar.nic.in/Kanunu%20padakosha%20PDF%20Files/Recognised%20Hospitals.pdf
Bharathy Hospital,,,,Karnataka,560079,12.9761294,77.5326369,,,+91-7813017997,
Yogananda Medical and Research Centre,,,,Karnataka,560070,12.9202791,77.5598033,yes,,+91-9384082307,
Cure & Care Dental Clinic Dr. Moumita Mukherjee,,,,,,12.9074968,77.6492213,,,+91-8859907679,
Shirdi Sai Hospital,,,,Karnataka,560054,13.0372438,77.5648754,yes,,+91-8622300947,http://shirdisaihospital.in/
Nayantara Opticals,,,,,,12.8924828,77.6198497,no,,+91-7216352661,
Kottakkal Arya Vaidya Sala,,,,,,12.9411061,77.5850591,no,,+91-9753667555,
"Charan Homeopathy, Ramamurthy Nagar",,,,,,13.0100409,77.6674667,,,+91-6109253412,
Rainbow Clinic and Diagnostic Laboratory,,,,,,12.891484,77.5816961,yes,,+91-6924326231,
Cloud Nine Hospital,Bangalore,"11th Main Road,17th Cross",,,,13.0078742,77.5625316,,,9972999729,
"Nayak Hospital, Gayathri Nagar",,,,Karnataka,560021,12.9993857,77.5606403,yes,,+91-9431145978,
"Maharaja Agrasen Hospital, Bengaluru Urban",,,,Karnataka,560070,12.915903,77.5550223,yes,,+91-6195034899,
Banashankari Referral Hospital,,,,Karnataka,560070,12.9231342,77.5642974,,,+91-8045700953,
Bangalore Kidney Foundation - NU Hospital,,,,,,12.9179548,77.555816,,,+91-7718297592,
"Panacea Hospital, Nagarabhavi",,,,Karnataka,560072,12.9613237,77.511726,,,+91-6348651920,http://www.panaceahospital.com/
Shanbhag Hospital,,,,Karnataka,560079,12.9856882,77.5435424,,,+91-6421563145,http://snsvo7.seekandsource.com/shanbhag/
Trupti Nursing Home,,,,Karnataka,560079,12.9946566,77.5397544,,,+91-8965228537,
Srivijaya Speciality Hospital,,,,Karnataka,560043,13.0124345,77.6580271,,,+91-9650713741,
Magnus Diagnostic Lab,,,,,,12.9349187,77.6305022,no,,+91-6369765765,
Krupa Medical center,,,,,,13.000431,77.5411664,no,,+91-9570443712,
Greenview Medical Center,Bengaluru,"14th Main Rd, opposite Agara Lake, Sector 5, 1st Sector, HSR Layout",,,560102,12.9191813,77.6381379,yes,,+91-6545262850,
Vaidyaratnam Oushadhasala,,,,,,12.9121004,77.6485848,no,,+91-7094028444,https://www.vaidyaratnammooss.com/
Blossoms Hospital,,,,,,12.9064393,77.6308237,yes,,+91-6765405388,
Happy Tooth,Bangalore,Vijayanagar Water Tank Road,,,560040,12.9744193,77.5336479,no,,+91-8522424869,
Rishi Women and Child Clinic,Bangalore,Vijayanagar Water Tank Road,,,560040,12.9745812,77.532699,,,+91-7084924770,
Penta Care Ayurvedic Hospital,Bangalore,Vijayanagar Water Tank Road,,,560040,12.9736894,77.5369482,,,+91-8481772628,
Shalini Nursing & MAternity Home,Bangalore,6th Main Road,63,,560085,12.9436624,77.5419997,,,+91-7527164339,
Shreya Poly Clinic,Bangalore,6th Main,,,560040,12.9729127,77.5394723,,,+91-7728932914,
Anurag Medical Center,Bangalore,4th Main Road,,,,12.9612829,77.5271683,no,,+91-7482141851,
United Medical lab,,,,,,13.0007683,77.6132902,,,+91-9067224155,
Pragathi Ayurvedic Center,,,,,,12.9843701,77.555666,,,+91-6407756069,
Vatsalya Chidren's Clinic,,,,,,12.8948505,77.6109105,no,,+91-7298309843,
Kottakkal Arya Vaidya Sala,,,,,,12.9002599,77.6271003,no,,+91-7844451183,
Sharavathi Hospitals (P) Ltd.,,,,Karnataka,560040,12.9623406,77.5342853,,,+91-6982043170,
"Dr.Agarwal's Eye Hospital Ltd, Padmanabha Nagar",Bangalore,,,Karnataka,560070,12.9169288,77.5592568,,,+91-9256210772,
Shraddha Eye Care,,,,Karnataka,560070,12.9184617,77.5555842,,,+91-6564822247,
"Vasan Eye Care Hospital, Rajarajeswari Nagar",,,,Karnataka,560098,12.931334,77.5154779,,ophthalmology,+91-8314534342,http://www.vasaneye.in/
Cloud Nine Fertility,bangalore,"24th Main, 5th Phase, Opp Nandini Hotel, Puttenhalli, JP Nagar",250,,560078,12.9055088,77.5858347,,,080 4350 0123,https://www.cloudninefertility.com/
Oncology India,,,,,,12.9061749,77.5847567,,,+91-6930712029,
Motherhood Hospital(Unit Of Rhea Healthcare Pvt Ltd),,,,Karnataka,560038,12.9784409,77.6375845,,,+91-8655844378,
Respiratory and womens health clinic.,,,,,,12.9762645,77.6376528,,,+91-6768107796,
Rashmi Hospital,,Indiranagar Double Road (Paramahansa Yogananda road),,,,12.9766951,77.6362278,,,+91-6510946658,
Netradama Eye Hospital,,,,,,12.9734836,77.6357281,,,+91-7995568255,
Sree Venkateshwara Speciality Hospital,,Bannerghatta Road,#1,Karnataka,560030,12.9425246,77.6025303,,,+91-7962503788,
Leela Hospital and Diagnostic Center,,,,Karnataka,560003,13.0002667,77.5694894,,,+91-9092109928,
Dr. Rajkumar Blood Bank,,,,,,12.968031,77.5878222,,,+91-8685786389,
"Sri Sai Krupa Hospital, Bengaluru Urban",,,,Karnataka,560021,13.0294181,77.5593857,,general,+91-9746670944,
ALDOS Medical Service Pvt LTD,,,,,,12.9826672,77.6381036,,,+91-9010288894,
Government Hospital,,,,,,12.8870605,77.603414,,,+91-6316512741,
Rajashree Granthim hospital,,,,,,12.8893134,77.602422,,,+91-8537480151,
Krishna Nursing Home,,,,,,12.9474222,77.5986921,,,+91-6227463652,
"Shifa Hospital, Bengaluru Urban",,Queen's Road,,Karnataka,,12.9900105,77.5988107,,,+91-6802952939,http://dpal.kar.nic.in/Kanunu%20padakosha%20PDF%20Files/Recognised%20Hospitals.pdf
Milann Fertility Center,,,,Karnataka,560041,12.9159249,77.5856011,,fertility,+91-9277793943,
Gift IVF center,,,,,,12.962951,77.6418711,,,+91-6658032589,
HCG Cancer Hospital,Bengaluru,,,Karnataka,560027,12.9603157,77.5930493,,,+91-7596760506,https://www.hcgoncology.com/
Health Care Global,,,,,,12.9584755,77.5919279,,,+91-6432059307,
Gulecha Dental Care,Bangalore,"4th Cross Road, KV Layout, Jayanagar 4th Block",32/29,,560011,12.9292418,77.5893625,,dental_oral_maxillo_facial_surgery,+91-8047605231,https://www.gulechadental.com/
Unknown Hospital,,8th cross,,,,12.9767055,77.5424167,,,+91-7237100619,
Rajbal Skin Clinic,Bangalore,"4th B cross, 7th C Main",,,560043,13.0206063,77.6445361,no,,+91-6290379338,
Prashanth Hospital,,,,Karnataka,560068,12.9066637,77.6287463,,,+91-7396446264,http://dpal.kar.nic.in/Kanunu%20padakosha%20PDF%20Files/Recognised%20Hospitals.pdf
Dianova Diabetes Center and Hospital,,,,,,13.0147612,77.6335463,,,+91-7502512109,
Ameena Medical centre,,18th Cross Road,111(3/1),,,12.9777082,77.6323407,,,+91-8247017771,
Dr.Agarwal Eye & Dental Hospital,,,,,,12.9700356,77.6362439,,,+91-8800033978,
Dr Raos Maternity Hospital,,,,Karnataka,560079,12.9850421,77.5460481,,,+91-9083992221,
Sagar Chandramma Hospitals,,,,,,12.9485535,77.5748248,,gynaecology,+91-9861911019,
Specialist Hospital,,,,Karnataka,560043,13.0169826,77.6432959,,,+91-9146979091,
Vignesh Lab and Diagnostics,,,,,,13.0267226,77.6041132,,,+91-9911629881,
Apollo Cradle,,,,Karnataka,560095,12.9368104,77.6206345,,Maternity Services; Birthing Fertility and IVF; Woman's Health; Women Health Checks; Procedures; Cancer Evaluation; Children's Health; New Born Screening; Vaccination,+91-8131909311,https://www.apollocradle.com/
Shiva Kumaraswamy Building,,,,,,12.9717049,77.5493718,,,+91-9335840985,
Kottakkal Arya Vaidya Sala,Bengaluru,"Service Rd, Agara, Iblur Village, Bellandur",,,560103,12.9217604,77.6618321,,,+91-80 6450 4434,https://aryavaidyasala.com/
Life Care Hospital,Bangaluru,"Om Complex, 20th Main, Gangotri Circle, BTM Layout, Madiwala",2324,Karnataka,560029,12.9194712,77.6130111,,,+91-80 2684 6677,https://lifecarehosp.com/
Bhagavathi Hospitals Private Limited,bangalore,HSR Layout Sector 6,.L-168,Tamil Nadu,625009,12.9161259,77.6311505,,,+91-80 4124 5860,
Gunasheela Hospitals,bangalore,"Sulochana Building, 1st Cross Rd, 3rd Block, Sarjapura Main Road, Koramangala",365,,560034,12.9250105,77.6278708,,,+91-80 - 4646 2626,http://gunasheela.co.in/
NRS Medical & Dental Specialists Centre,bangalore,"80 feet road,banashankari",5,,560050,12.9151071,77.5624888,,,08026696054,
Anurag Medical Centre,bangalore,"Main Road, Chandra Layout, Vijayanagar,",#349/352/6/1/1,,560070,12.9060641,77.6049776,,,+91-6873742080,
Sarvodaya Hospital,bangalore,Magadi Main Road,11/2,,560079,12.9390944,77.5619057,,,098440 74946,
Indianova Healthcare Pvt Ltd,Bangalore,"3rd main shridi sai baba mandir road, Cambridge layout halasuru",58/1,,560008,12.9703581,77.63022,,,+9197390 07505,indianovahealthcare.com
Welnext,Bangalore,"Third Floor, H.S.R Agara Circle, Sarjapura, Outer Ring Rd, Agara Village, HSR Layout,",65/8,,560102,12.9240063,77.6545058,,,+9196960 00222,https://welnext.com/
Employees State Insurance Dispensary,Bangalore,"17th Cross Rd, Service Road, Opp. Maruthi Mandir, TTMC Bus Stop, Govindaraja Nagar Ward, PF Layout, Vijayanagar",,,560040,12.966771,77.5349228,,,080 2845 2785,globalhospitalsindia.com
Dr Solankis Eye Hospital,Bangalore,", 2nd cross, Link Road, Malleswaram",191/1,Karnataka,560020,12.9951627,77.5738144,,,080 2356 2211,
Sri Sanjeevini Cold Laser Therapy,bangalore,"3rd Flr, Srikrupa, Nxt To Adiga Hotel, 15th Crs, Sampige Mn Rd, Malleswaram",316,,560003,13.0053923,77.5713352,,,080663 79862,
Dr. Bhargavi Reddy Women & Children Hospital,bangalore,"Indiranagar 80ft Road, New Thippasandra, Hal 3rd Stage, Via Indira Nagar 80ft Road",,,560075,12.975403,77.6470594,,,080 2525 6666,https://drbhargavireddyhospital.com
Axon Speciality Hospital,BENGALURU,"6th Main Road, HAL 2nd Stage, Indira Nagar",321,,560038,12.973892,77.6460904,,,080 4334 6333,
Sanjeevini Children & Women Clinic,Bangalore,"Sultanpalya Main Road, Near-Bus Stand, R T Nagar",,,560032,13.0316481,77.6023154,,,080 2292 4422,
Procare Hospital,BANGALORE,Outer Ring Road,"914, 5th A Cross Road",,560043,13.0203944,77.6512682,yes,,080 4162 0620,080 4162 0620
Life Care Hospital,Bangalore,Maruthi Nagar Main Road,"2324, Om Comple",,560068,12.9239305,77.6132696,yes,,080 2684 6677,
Parimala Health Care,Bangalore,Bannerghatta Road,2nd Cross Rd,,560076,12.9003193,77.6008061,yes,,080 2658 3117,
Unknown Hospital,Bangalore,"12th Main, HAL II Stage, Indiranagar",2989/1A,,560038,12.9702741,77.6468603,,,080 4530 0300,https://www.nightingales.in/
Medic Star Hospital,bangalore,"AM Road, Bharati Nagar, Shivaji Nagar",,Karnataka,560001,12.9876871,77.6093097,,,080 2554 1337,
Hsis Gosha Hospital,bangalore,"Tasker Town, Near-KSPCB Limited, Shivaji Nagar, Sulthangunta, Shivaji Nagar",,,560051,12.9856985,77.6058578,,,"""080 2286 6529",
Santosh Hospital,bangalore,"Promenade Road, Near Coles Park, Frazer Town",6/1,Karnataka,560005,12.9959413,77.6082575,,,080 2536 7706,https://santoshhealthcare.com/
Hospital,bangalore,"St Johns Church Rd, Bharati Nagar, Shivaji Nagar",,,560001,12.9914123,77.6117329,,,+9193411 44150,https://www.mirlayeyecare.com/
Keva Ayurveda Health Care Pvt Ltd,Bengaluru,"7th Cross, 35th Main, BTM 2nd Stage,, Adjacent DSR Naveen Lake View Apartments, Karnataka",,,560076,12.9127062,77.6201668,,,080508 01515,https://kevaayurveda.com/
Ayurvaid Hospital,Bengaluru,"Amarjyothi Layout, Off Intermediate Ring Road, Near Dell India/Millennium Motors, Domlur Extension, Amarjyoti Layout, Domlur, Karnataka",230,Karnataka,560071,12.9552696,77.6428508,,,080 4092 5555,https://ayurvaid.com/
H B S Hospital,bangalore,"Sultan Gunta,, Cock Burn Rd, Sulthangunta, Shivaji Nagar",,,560051,12.9891941,77.6037864,,,080 2554 1321,
St. Martha's Heart Centre,Bangalore,"Nrupathunga Rd, RBI Colony, Sampangi Rama Nagar",5,,560001,12.9705436,77.5834769,,,+9195380 43453,locations.narayanahealth.org
Sumathi Nursing and Maternity Home,bangalore,"#426/12, 2 Cross,Mathikere Layout,Behind Canara Bank",,Karnataka,560054,13.0325717,77.5582602,,,+9180 2337 2762,
Desai Nursing Home,Bangalore,"Kumarakrupa Road, High Grounds, Madhava Nagar, Gandhi Nagar",6/6,,560001,12.9863736,77.5793154,,,+9180 2226 0307,
Fortis Hospital,bangalore,"West of Chord Road,, Opp Rajajinagar 1st Block Junction",111,,560010,12.9881648,77.5548179,,,080-2300-4444,fortisbangalore.com
Healing Earth Multispeciality Ayurveda Hospital,Bengaluru,"HSR Ring Road, 5th Sector , HSR Layout, Karnataka",149,,560034,12.9165359,77.6361865,,,080674 75757,https://www.healingearth.co.in/
Global Ayurveda Multispeciality Hospital,Bengaluru,"HSR Ring Road, 5th Sector , HSR Layout, Jakkasandra, 1st Block Koramangala, HSR Layout, Karnataka",149,,560034,12.9165795,77.6362187,,,080674 75757,https://www.healingearth.co.in/
Brahmi Ayurvedic Center,Bengaluru,"12th Main Road, Behind Ingu Tengu Restaurant, Off Bannerghatta Road, Shantiniketan Layout, Karnataka",311-B,,560076,12.8830054,77.6073285,,,+9190086 54547,brahmi-ayurveda.com
Fj Merrit Hydrotherapy And Wellness,Bengaluru,"KAY ARR CORNER STONE 2nd Floor 80 Feet Road 4th Block, Koramangala,Karnataka",101,,560034,12.9344224,77.6299785,,,080 4095 1282,
Vedam Ayurveda Multispeciality Hospital,Bengaluru,"8th B Main Road, BTM Layout 1st Stage, KEB Colony, New Gurappana Palya, BTM Layout 1, Karnataka",57,,560029,12.9175511,77.6039486,,,080 4120 2911,https://vedamayurveda.co.in/
Ayur jagruti,Bengaluru,"10th Cross Rd, Doopanahalli, Indiranagar, Karnataka",3718,,560008,12.9667253,77.6378289,,,+9196633 81398,facebook.com
Herbocare Hospital Pvt,Bangalore,"4th B Cross, 7th A Main, 1st Block, HRBR Layout, Kalyan Nagar",714,,560043,13.0204424,77.6440607,,,+9174064 30003,herbocare.info
""" NRS Medical & Dental Specialists Centre""",Bangalore,"80 Feet Road, 1st Stage, Srinivasa Nagar, Banashankari",5,,560050,12.9378359,77.5573329,,,080-26696054,
Chiranjeevi Hospital & Maternity Home,bangalore,"2nd Main, Bsk 1st Stage, 80 Feet Road, Srinivasa Nagar,Sree Manjunatha Temple Street",60,Karnataka,560050,12.9386994,77.5518394,,,080 2691 7676,
"Vinayaka Hospital, Hanumantha Nagar",bangalore,"State Bank Of Mysore Colony, 1st Stage,80 Feet Road,, Banashankari",110,Karnataka,560050,12.9373748,77.5494778,,,080 2679 6167,http://dpal.kar.nic.in/Kanunu%20padakosha%20PDF%20Files/Recognised%20Hospitals.pdf
Diavista Diabetes & Multispeciality Hospital,Banglore,"11th Cross, 2nd Main, 80ft Main Road, SBM Colony, Giri Nagar 4th Phase",788,,560050,12.9354293,77.5477956,,,080 4096 9392,diavista.co.in
Meenakshi Hospital,Bengaluru,50 Feet Road,979/A,,560085,12.9420715,77.553698,,,+918026755800,
Medi-Tech Multi Speciality Hospital,bangalore,"9th Main, 2nd Block, Hanumantha Nagar, Near-Shaneshwara Temple Road, Banashankari 1st Stage",795/1,Karnataka,560050,12.9408667,77.5603657,,,080 2660 2910,
Kusuma Hospital,bangalore,"Nagendra Block, 50ft Road, 10th Main Rd, Srinagar, Banashankari",237/37,,560050,12.9420124,77.5506918,,,080 2642 1177,
Ring Road Hospital,Bangalore,"1st Main Road, Kathreguppe Cross Road, Kathreguppe, Banashankari 3rd Stage",165,,560085,12.9274553,77.5516293,,,080 2679 7040,
Pulse Multispecialty Hospital,bangalore,"20th Main Road, Muneshwara Block, Girinagar, 1st phase Girinagar, Kadavanthra, Banashankari",5/8/1,,560085,12.9389007,77.5438808,,,080 2672 4466,
Surya Galaxy Hospital,bangalore,",2nd Main,1st Block,4th Phase,Kathriguppe,BSK 3rd Stage, Water Tank Road, Banashankari","103,994",,560085,12.9316792,77.5450887,,,080 2642 1051,
Surya Diagnostics and Health Services,Bangalore,"Hosur Road, Madiwala, Venkateshwara Layout, Sadduguntepalya",#1478/1,,560029,12.9242825,77.6170883,yes,,080 2552 6667,
Ayushman Ayurvedic therapy centre,bangalore,"Millers Rd, Cantonment Railway Quarters",62,,,12.9946163,77.6023871,,,+91 95356 68668,ayushmanayurvedic.com
Pristine Hospital,Bangalore,"Dr. Modi Hospital Road, 2nd stage extension",877,,560010,12.9984229,77.5403887,,,+9180 4135 4444,pristinehospitals.com
Sri Vinayaka Hospital,Bangalore,14th Main Road,1222,Karnataka,560040,12.9575029,77.5276466,,,080 2339 8062,
Shathayu Ayurveda Wellness Centre,Bangalore,14th Main Road,,,560040,12.9573897,77.5276882,,,+91 8040999110,
Hospital Sharavathi,Bangalore,"30 Service Road Rpc Layout Vijaynagar, Chandra Layout",1133/f,,560040,12.9594984,77.5275515,,,+918023300222,
Arogya Kendra,Bangalore,"Adichunchangiri Shopping Complex Adichunchangirishpgcplx Vjyngrb40 Vijaynagar, Attiguppe",,,560040,12.9735891,77.5443283,,,+918023400463,
The Family Doctor Malleswaram,bangalore,10A Crossroad,,,560010,13.0029689,77.5526666,,,+9180 2337 6262,https://thefamilydoctor.co.in/
Venkat Charmalaya,Bangalore,"7 Subbanna Garden Vijaynagar, Attiguppe",3437,,560040,12.9644231,77.5333324,,,+918023392788,
V Care Medical Systems P Ltd,,"S V Complex Magadi Main Vijaynagar, Magadi Road",30/2,,,12.9787049,77.5403581,,,+918023110651,
Manasa Hospital,Bangalore,Nagarabhavi Road,,Karnataka,560040,12.968821,77.5246297,,,+918023104640,http://www.manasa.in/
Saikrupa Hospital For Women's and Surgical Centre,Bangalore,"20th B Cross, Marenahalli Main Road, Govindaraja Nagar Ward, Vijayanagar",51/88,Karnataka,560040,12.9691657,77.5351921,,,+91080 2311 9592,http://dpal.kar.nic.in/Kanunu%20padakosha%20PDF%20Files/Recognised%20Hospitals.pdf
Cutis Academy of Cutaneous Sciences,Bangalore,"4th Main, MRCR Layout, Vijayanagar, Behind Godrej Interio, Near Veeresh Theatre, Govindaraja Nagar Ward, MC Layout, Vijayanagar",5/1,,560040,12.9768117,77.5449094,,,080 4115 9049,
Shreya Hearing Clinic,Bangalore,Chord Road,,,560040,12.9621516,77.533401,,,""" 080 2318 0012""",
Acura Speciality Hospital,Bangalore,"5th Block, 17th C Main Road, KHB Colony , Koramangala",105,Karnataka,560095,12.9353208,77.6205504,,,+9180 4110 5151,https://www.seekandsource.com/acurahospital
Prasad Nethralaya,Bangalore,"Widia Layout, Chandra Layout Main Road, Govindaraja Nagar Ward, Widia Layout, Vijayanagar",NO.105,,560040,12.9603312,77.5300796,,,080 2339 2807,
Vijayanagar Global Hospital,Bangalore,"17th Cross, Near Main Bus Stand, M.C. Road, Vijayanagar",46,,560040,12.9717905,77.5372864,,,080 4240 8200,
Blossom Infertility Center,Bangalore,"1st Floor, Next to Sai Prasadam Hotel, 5th Main Rd, Hampi Nagar 2nd Stage, RPC Layout",221,,560040,12.9649703,77.5389842,,,+91 99009 99116,
Padmashree Nursing Home and Maternity Home,Bangalore,"1108/30 10Th Main 4Th Cross, Rpc Layout, Vijayanagar",30,,560040,12.958321,77.5350434,,,080 2311 8372,
Unknown Hospital,Bangalore,"1st Main Rd, Kaveri Layout, Govindaraja Nagar Ward, Anubhav Nagar, Vijayanagar",17,,560040p,12.9639998,77.5302683,,,080 2335 2200,
Dhanush Hospital,Bangalore,", Byraveshwara Nagar, 2nd Main, Moodalapalya, Nagarabhavi Main Road, 2nd Block, Govindaraja Nagar Ward",63,,560072,12.9706209,77.5151893,,,080 2318 5544,
"S K Hospital, Bengaluru Urban",Bangalore,Nagarabhavi Road,,Karnataka,560072,12.957572,77.5184436,,,080 2321 3699,
"Green City Hospital, Bengaluru Urban",Bengaluru,"Outer Ring Rd, Rose Garden, JP Nagar Phase 6, JP Nagar,",5,Karnataka,560078,12.9062193,77.580682,,,080 2653 6222,
The Homoeo World,Bangalore,"2nd Cross Rd, Malleshwaram",1,,560003,12.9947201,77.5715879,,,080 2346 1995,
Modern Family Doctor Pvt Ltd,Bangalore,"1st Main Rd, Kaveri Layout, Govindaraja Nagar Ward, Anubhav Nagar, Vijayanagar,",17,,560040,12.9698405,77.5327211,,,080 2335 2200,
Oxford Hospital,Bangalore,"Mnr Arcade, Saraki Gate, Kanakapura Road, Saraki Gate",,,560078,12.9312101,77.5756907,,,080 2245 2500,
R R Hospital & Trauma Centre,Bangalore,"8th cross, Gangadhar Nagar, 100 Feet Ring Road, J P Nagar,",11/2,,560078,12.9059465,77.5904192,,,080 2671 8785,
M N Speciality Clinic,bangalore,"24th Main Rd, KR Layout, 1st Phase, JP Nagar",9,,560078,12.9039905,77.5859569,,,080 2653 0121,
Prashanth Hospital,Bangalore,"Bommanahalli Circle, Hosur Main Road",90/D,,560068,12.9067129,77.6265085,yes,,080 4150 3714,https://www.prashanthhospitals.in/
Parimala Health Care,Bangalore,"Bannerghatta Road, Near Kalyani Kala Mantap, Bilekahalli, 2nd Cross Rd,, Ram Shetty Nagar, Bilekahalli",,,560076,12.9009278,77.5986641,yes,,080 2658 3117,
Vijay Diagnostic Centre,bangalore,"3rd Main,KEB Layout, BTM Layout  1","58,59",,560029,12.9458746,77.5877756,yes,,080 2668 4260,
Dr Lal PathLabs,Bangalore,"Ground Floor, 1st Phase, 2nd Stage, Oppo. Ias Colony Ground, BTM Layout, Mahadeshwara Nagar, Stage 2, BTM 2nd Stage",#3,,560068,12.924274,77.5680927,yes,,080 4091 6014,https://www.lalpathlabs.com/
Welnext,Bangalore,"H.S.R Agara Circle, Sarjapura, Outer Ring Rd, Agara Village, HSR Layout","65/8, Third Floor",,560102,12.9242869,77.6532853,yes,,+9196960 00222,https://welnext.com/
Sri Sai Ram Hospital,,Kanakapura Road,,Karnataka,560062,12.8943049,77.5682821,,,+91-9042579656,http://www.srisairamhospital.com/
Tamara Hospital & IVF Centre,bangalore,Vidhya Vardhaka Sangha Road,34/3,,560010,13.0044499,77.5530755,,,+91 80 2337 0780,https://tamarahealthcare.com/
ChanRe Rheumatology and Immunology Center and Research,,,,,,12.995573,77.5354215,,,+91-6090406012,
"Manasa Hospital, Vijayanagar",,,,Karnataka,560040,12.9709463,77.5451059,,,+91-7416884970,
Nagarathna Hospital,,Dr. Vishnuvardhan Road,,,560061,12.9056092,77.5426964,,,+91-8783467187,
Ramana Rao's clinic,,,,,,13.0130826,77.5761449,,,+91-6639621692,
Government Maternity Home,,,,,,12.9983402,77.6200927,,,+91-8796762301,
Lucid Medical Diagnostics,,3 Main Road,46,,560082,12.9306876,77.5794541,,,08049364444,https://luciddiagnostics.com/
Cauvery Orthopaedic Centre,,,,Karnataka,560010,12.9984887,77.5504219,,orthopaedics,+91-8698938509,
"Apollo Bengaluru Cradle Limited, Jayanagar",,,,Karnataka,560011,12.9168014,77.5851878,,,+91-8488164899,https://www.apollocradle.com/
"Nethradhama Superspeciality Eye Hospital, Rajajinagar",,,,Karnataka,560021,12.997613,77.5509423,,,+91-6805802631,
NIMHANS - Ashwini Block,,,,,,12.9397588,77.59445,,,+91-7201143043,
Comfort Multispeciality Hospital,,,,Karnataka,560093,12.9817167,77.6800412,,,+91-8840692808,
National Institute of Mental Health and Neuro Sciences,,,,Karnataka,560029,12.9400669,77.5931597,,,+91-6273438849,
NBRC(National Brain Research Center),,,,,,12.9404277,77.5988406,,,+91-9892326161,
Dr. Roshni's Tooth Planet Dental Clinic,Bengaluru,DRDO Phase 2 Main Road,#33,,560048,12.9876335,77.6851595,yes,,+91-8525566490,
Cambridge Hospital,,,,Karnataka,560008,12.9716236,77.6273835,,,+91-6131214888,
Respigen healthcare,,,,,,12.9555357,77.5918347,,,+91-6778892832,
Doctor's diagnostics Centre,,,,,,13.014746,77.6357881,,,+91-8145135140,
Wellspring,,,,,,13.0080001,77.5837482,,,+91-8048616070,
Cloudnine Hospital Pvt. Ltd.,,,,Karnataka,560001,12.9597752,77.6569127,,,+91-8077104489,
Subramanium Medicine Store,,,,,,13.0090912,77.656317,,,+91-7893187906,
Chaya Super Speciality Hospital,,,,Karnataka,560041,13.0104342,77.6583242,,,+91-6995190121,
Altius Hospital,,,,Karnataka,560010,12.9849537,77.5569222,,,+91-7886280491,
Bangalore Diabetes Hospital,,,,,,12.9918415,77.5968531,,,+91-7532424977,
NU Hospitals,,,,,,13.011845,77.5526061,,,+91-6739711548,
V. S. Achar Multispeciality Hospital,,,,Karnataka,560027,12.9472091,77.5966914,,,+91-8826685229,
Nature Cure Hospital,Bangalore,9th Main Road,1537/1,Karnataka,560011,12.933223,77.5842632,,,+91 80 2663 1945;+91 80 2244 6035,https://www.jayanagarnaturecure.in/
Government Hospital,,,,,,12.966103,77.5549647,,,+91-7143178034,
"Emergency Block , NIMHANS",,,,,,12.9403849,77.5945391,yes,,+91-7612228532,
Usha Vikranth Diagnostic Center and Hospital,,,,,,12.9138086,77.5273633,,,+91-8646095061,
Nethradhama Superspeciality Eye Hospital,,,,Karnataka,560038,12.9719805,77.6474011,,,+91-6863514322,https://www.nethradhama.org/
Care Health,,,,Karnataka,560024,13.0552027,77.6028234,,,+91-7975649954,
Sri Shankara Cancer Hospital And Research Centre (A Service Unit Of Sscf),,,,Karnataka,560004,12.9542624,77.5709473,,,080-26981000,http://shankaracancerfoundation.org/
Vathsalya Speciality Hospital,,,,Karnataka,560079,12.9939752,77.5391801,,gynaecology,+91-6802403302,
Lakeside Medical Centre and Hospital,,,,,,12.9878631,77.6177434,,,+91-8439079244,
Maruthi Hospital,,,,Karnataka,560072,12.9677607,77.5413282,,,+91-6906550265,
Aparna Hospital,,,,,,12.9362087,77.616947,,,+91-9841491850,
Apollo Spectra Hospitals,,,,,,12.9338175,77.6201615,,,+91-6490494511,
Sankeerthana Hospital and Fertility Center,,,,Karnataka,560034,12.9256013,77.6359638,,,+91-6525016334,
Shiva Vision Care,,,,,,12.9366526,77.6277125,,,+91-8368765185,
Sujatha Hospital,,,,,,12.9781293,77.6372391,,,+91-8292359855,
The Eye Surgical Centre,,,,Karnataka,560010,12.9821954,77.5493143,,,+91-7628696701,
Lourdes High School,,,,,,13.0182102,77.540004,,,+91-9271234818,
Boregowda Lingamma Hospital,,,,,,13.016705,77.539386,,,+91-9748762588,
Kanva Hospital,,,,,,13.0175606,77.5394308,,,+91-9778283055,
Yogananda Multi Speciality Hospital,,,,Karnataka,560070,12.9180137,77.5594723,,,+91-6476443248,
Dr. Agrawal's Eye Hospital,,,,Karnataka,560004,12.9998982,77.5501121,,,+91-7403772274,
Ashok Hospital,,,,Karnataka,560079,12.9948905,77.5347984,,,+91-8409314354,
Balaji Hospital and Gastroenterology Center,,,,Karnataka,560019,12.9376087,77.5666429,,,+91-9760126556,
Chaitanya Hospital,,,,Karnataka,560032,13.0237316,77.5941463,,,+91-7294669277,
Dr. B. Venkatasubbarao Memorial Hospital,,,,Karnataka,560003,12.9981979,77.568151,,,+91-7296976182,
"South City Hospital, Bengaluru Urban",,,,Karnataka,560004,12.9497745,77.5802779,,,+91-8682735307,
"Sri Sai Hospital, Bengaluru Urban",,,,Karnataka,560043,13.0370143,77.6238732,,,+91-7081566443,
Jupiter Hospital And Institute Of Vascular Surgery,,,,Karnataka,560003,12.9998457,77.5663653,,,+91-8400122558,
"Shreyas Hospital, Bengaluru Urban",,,,Karnataka,560043,12.9829857,77.5309655,,,+91-9586493134,
Rajalakshmi Multispeciality Hospital,,,,Karnataka,560078,12.9168151,77.5795484,,,+91-8737658016,
Ashirwad Hospital,,,,Karnataka,560032,13.0289685,77.6045479,,,+91-8283679171,
Asha Kiran Children & Women Health Care Centre,,,,Karnataka,560032,13.0263529,77.5933929,,,+91-9012066086,
Radha Maternity and Surgical Hospital,,,,Karnataka,560053,12.9690441,77.5688544,,,+91-7634401070,
"Hitech Kidney Stone Hospital, Bengaluru Urban",,,,Karnataka,560001,12.9878104,77.5809833,,Dornier AlphaLithotripsy Treatment; X-Rays; US Scan; Urologist Consultation,+91-9335261739,http://www.hitechkidneystonehospital.org/
Sri Dhavantari Ayurveda Hoapital,,,,Karnataka,560010,12.9822186,77.5599374,,,+91-6447592540,
Vaidyam Hospital,,,,Karnataka,560040,12.9845512,77.5528322,,,+91-6100199987,
Suresh Hospital - Bangalore,,,,Karnataka,560010,12.9897745,77.5551014,,,+91-8320691350,
Lakshmi Maternity Home,,,,Karnataka,560055,13.0058226,77.5694512,,,+91-9865327814,
Manjunatha Maternity Home and Surgical Centre,,,,Karnataka,560055,13.0077265,77.5696993,,,+91-6584096781,
Samprathi Eye Hospital And Squint Centre,,,,Karnataka,560020,12.9932806,77.580691,,,+91-8473534049,https://squinteyehospital.com/
Shankara Nethralaya Eye Hospital,,,,Karnataka,560096,13.0089953,77.5406188,,,+91-9846444566,
Supra South City Hospital,,,,Karnataka,560078,12.8919509,77.5799654,,,+91-6354964052,
ChanRe Rheumatology and Immunology Center and Research,,,,Karnataka,560010,12.9992083,77.550269,,,+91-8741506041,https://www.chanrericr.com/
Chandana Hospital,,,,Karnataka,560072,12.9579894,77.5114394,,,+91-9500691827,
"J M J Hospital, Bengaluru Urban",,,,Karnataka,560045,13.0398217,77.6230843,,,+91-6027007169,
Sri Krishna Hospital,,,,Karnataka,560070,12.9215013,77.5655432,,,+91-6323701676,
Malleswaram Eye Day Care Hospital - Bengalore,,,,Karnataka,560003,12.9966677,77.5716037,,,+91-6943503392,
Mahaveer Eye Hospital Private Limited,,,,Karnataka,560020,12.9933551,77.5729595,,,+91-9142294169,http://dpal.kar.nic.in/Kanunu%20padakosha%20PDF%20Files/Recognised%20Hospitals.pdf
Bilva Hospital,,,,Karnataka,560003,12.9989833,77.5802015,,,+91-8284575801,
"Nethradhama Superspeciality Eye Hospital, Jayanagar",,,,Karnataka,560082,12.9256932,77.5773127,,ophthalmology,+91-9921476023,https://www.nethradhama.org/
Dr Agarwals Eye Hospital Ltd,,,,Karnataka,560076,12.9122295,77.5994906,,,+91-8323831953,
Sri Venkateshwara Hospitals,,,,Karnataka,560068,12.926471,77.6167399,,,+91-7775178088,http://dpal.kar.nic.in/Kanunu%20padakosha%20PDF%20Files/Recognised%20Hospitals.pdf
"Nova Specialty Surgery Center, Koramangala",,,,Karnataka,560034,12.9339097,77.620208,,multi speciality,+91-6896745384,www.novaspecialtysurgery.com
C.S. Hospital,,,,Karnataka,560063,12.9118831,77.5528805,,,+91-9917434579,
Sri Kalabyraveshwara Swamy Ayurvedic Medical College hospital,,,,Karnataka,560104,12.9650437,77.5435022,,,+91-8544357860,http://skayurvediccollegeandhospital.com/
"Anugraha Hospital, Vijayanagar",,,,Karnataka,560079,12.9765645,77.5455876,,,+91-9793938159,
Amar Hospital,,,,Karnataka,560053,12.9711822,77.5781228,,,+91-9663514054,
Retina Institute Of Karnataka,,,,Karnataka,560018,12.95727,77.5640827,,,+91-7584663798,https://www.retinainstitute.org/
The Venlakh Hospital,,,,Karnataka,560018,12.9572978,77.5644522,,,+91-6970691337,
Vishwabharathi Hospital Pvt. Ltd,,,,Karnataka,560019,12.9406698,77.5644596,,,+91-7382404010,
"Sunetra Eye Hospital, Bengaluru Urban",,,,Karnataka,560050,12.9404548,77.5578493,,,+91-6422984856,
Sri Vivekananda Sevashrama,,,,Karnataka,560070,12.9253299,77.5711893,,,+91-7646610820,
Saraswathi Hospital,,,,Karnataka,560070,12.9276382,77.568896,,,+91-6068101872,
National Institute of Mental Health and Neuro Sciences,,,,Karnataka,560029,12.9386321,77.5944105,,,+91-6157019321,https://nimhans.ac.in/
Netraspandana Healthcare and Research Pvt. Ltd,,,,Karnataka,560072,12.9291283,77.5461361,,,+91-6202003478,
Nu Trust,,,,Karnataka,560070,12.9176216,77.5550705,,,+91-9877042233,
"Padmavathi Hospital, Bengaluru Urban",,,,Karnataka,560079,12.9817311,77.5333714,,,+91-8382247544,
Sri Lakshmi Multi Speciality Hospital,,,,Karnataka,560054,12.9881868,77.5087273,,,+91-6476441343,
K C Raju Multi Speciality Hospital,,,,Karnataka,560043,13.0090828,77.6235594,,,+91-8037920879,
Ring Road Hospital,,,,Karnataka,560085,12.9278657,77.5519297,,,+91-9074521283,
"Vasan Eye Care Hospital, Bannergatta Road",,,,Karnataka,560076,12.8822813,77.5957945,,,+91-7763029580,http://www.vasaneye.in/
Varalakshmi Hospital,,,,Karnataka,560068,12.924624,77.6170966,,,+91-6953839720,
Kala Hospital,,,,Karnataka,560022,13.0223669,77.5587304,,,+91-9903751004,
"Shekhar Hospital, Jayanagar",,,,Karnataka,560039,12.917589,77.5948906,,,+91-8387437357,
"Vasan Eye Care Hospital, Sarakki",,,,Karnataka,560078,12.9103393,77.5732398,,,+91-6216714757,http://www.vasaneye.in/
Mahanth Hospital,,,,Karnataka,560068,12.9079615,77.6235715,,,+91-6889195806,
Sunayana Eye Hospital,,,,Karnataka,560041,12.9255233,77.5937748,,,+91-8484672073,https://sunayanaeyehospital.com/
"Lakshmi Hospital, Ganganagar",,,,Karnataka,560032,13.024837,77.592089,,,+91-8327206830,
Lokhande S Hospital,,,,Karnataka,560043,13.0186045,77.6479433,,,+91-9592247111,
Dr. T.V.Ramesh Piles Hospital,,,,Karnataka,560032,13.0250141,77.5856289,,Piles; fistula; fissure,+91-6691944136,https://www.pilesramesh.com/
Dr Kamini Rao Hospital(A Unit Of Bacc Health Care Pvt Ltd),,,,Karnataka,560041,12.9163994,77.5847384,,,+91-7627058396,
HCG,,,,Karnataka,560027,12.9605309,77.592659,,,+91-6742518291,
Dr Ambedkar Medical College Hospital,,,,Karnataka,560045,13.0218188,77.613084,,multi speciality,+91-9089764320,http://www.bramc.org/
"Supriya Hospital, Bengaluru Urban",,,,Karnataka,560021,12.9929043,77.5588015,,,+91-6887887146,
Manju Sree Hospital,,,,Karnataka,560032,13.0212406,77.6070739,,,+91-8183716582,
Raj Mahal Vilas Hospital,,,,Karnataka,560094,13.0322819,77.5770459,,,+91-6700888951,
Devi Eye Hospital,,18th Main Road,434,Karnataka,560095,12.9412109,77.6238987,,multi speciality,+91-9017716263,http://www.devieyehospital.in/
Essential Hospital,,,,Karnataka,560072,12.974865,77.5096312,,,+91-7871655447,
Shree Vijayalakshmi Hospital and Trauma Centre,,,,Karnataka,560043,13.0373572,77.6409059,,,+91-7700342151,
Kalasa Maternity Home,,,,Karnataka,560019,12.9548208,77.5672585,,,+91-7570241315,
Sidvin Hospital Pvt Ltd,,,,Karnataka,560010,12.982442,77.5493681,,,+91-6673049193,
Abhilash Hospital And Sara Rehabilitation Centre,,,,Karnataka,560085,12.9246384,77.5509238,,,+91-9623970980,
"HCG, Koramangala",,,,Karnataka,560095,12.9343279,77.6228848,,Clinical Labs; Diagnosis; Medical Oncology; Radiation oncology; Surgical Oncology,+91-7953128331,https://www.hcgoncology.com/
"Ganesh Nursing Home, Bengaluru Urban",,,,Karnataka,560080,12.8957636,77.6330289,,,+91-9383542599,
Kavya Hospital,,,,Karnataka,560068,12.8987442,77.6263127,,,+91-7789008833,
Sg Hospital,,,,Karnataka,560085,12.9275311,77.5457901,,,+91-9617420872,
Yadiyuru Maternity Hospital,,,,Karnataka,560082,12.9271494,77.5766194,,,+91-8140268693,
Place Guttahalli Maternity Home,,,,Karnataka,560003,12.9988238,77.5819892,,,+91-8688480062,
"Phoenix Hospital, Bengaluru Urban",,,,Karnataka,560027,12.9608027,77.5911717,,,+91-9847972088,
"Vasan Eye Care Hospital, Banaswadi",,,,Karnataka,560043,13.0241341,77.6335546,,,+91-6946225162,http://www.vasaneye.in/
"Vasan Eye Care Hospital, R.T.Nagar",,,,Karnataka,560032,13.0251833,77.5920609,,,+91-6557495888,http://www.vasaneye.in/
Kims Hospital and Research Centre,,,,Karnataka,560004,12.9563016,77.5747874,,,+91-8013036268,
"Karthik Hospital, Bengaluru Urban",,,,Karnataka,560027,12.9489406,77.5949925,,,+91-9434946472,
Bangalore Kidney Stones Hospital,,,,Karnataka,560027,12.9670215,77.5892667,,,+91-6421526332,
Sree Lakshmi Hospital,,,,Karnataka,560093,12.9825937,77.6814736,,,+91-8067214480,
"Abhaya Eye Hospital, Super Speciality Eye Care Centre",,,,Karnataka,560085,12.9271131,77.5471291,,Cataract,+91-6420180558,http://www.abhayaeyehospital.com/
Mediscope Hospital Private Limited,,,,Karnataka,560045,12.9994472,77.6162584,,,+91-8628986948,http://dpal.kar.nic.in/Kanunu%20padakosha%20PDF%20Files/Recognised%20Hospitals.pdf
Manjushree Speciality Hospital,,,,Karnataka,560042,12.9825845,77.6124926,,,+91-6413715151,
Namratha Nursing And Maternity Home,,,,Karnataka,560086,13.0045747,77.5432728,,,+91-6680426546,
The Pulse Multi Speciality Hospital,,,,Karnataka,560085,12.9424801,77.5473283,,,+91-7396380640,
Popular Hospital,Bangaluru,3rd Cross Road,16,Karnataka,560004,12.9514854,77.5703564,yes,general,+91-8253795862,
Gavipuramguttahalli Maternity Home,,,,Karnataka,560018,12.9526505,77.5548633,,,+91-9122925142,
Ayurseva Hospital,,,,Karnataka,560016,13.0139247,77.6640775,,,+91-9437647704,
Spine Care And Ortho Care Hospital,,,,Karnataka,560086,12.9745134,77.5493883,,,+91-8974753043,https://www.bengaluruspinecare.com/
Tanmay Hospital,,,,Karnataka,560040,12.9733764,77.5474034,,,+91-7000288441,
Bhagavathi Multi Speciality Hospital,,,,Karnataka,560040,12.9160636,77.6308219,,,+91-7953161154,
Sri Sai Ram Hospital - Bangalore,,,,Karnataka,560076,12.9144587,77.6003156,,,+91-8689469696,
Susheel Hospital,,,,Karnataka,560040,12.9645006,77.5427189,,,+91-6643292394,
Dhanush Hospital,,,,Karnataka,560072,12.9654318,77.52312,,,+91-6035383585,
"Sadhana Eye Hospital, Bengaluru Urban",,,,Karnataka,560008,12.970023,77.6307987,,,+91-8628305481,
Av Hospital,,,,Karnataka,560004,12.938853,77.5786096,,,+91-8507520591,
"Balaji Hospital, K.H. Ranganath Colony",,,,Karnataka,560018,12.9632506,77.5602901,,,+91-7126780457,
Banasawadi Hospital,,,,Karnataka,560043,13.0205082,77.6509675,,,+91-6587112634,
Bangalore Eye Hospital And Retina Centre,,,,Karnataka,560043,13.0221036,77.6387729,,,+91-9456576808,
Bhavatprabhu Hospitals Pvt Limited,,,,Karnataka,560027,12.9670615,77.5903161,,,+91-7747614269,
Nikad Ortho Centre,,,,Karnataka,560042,12.975802,77.6184806,,,+91-9602230090,
Raksha Multispeciality Hospital,,,,Karnataka,560096,13.0195733,77.5419559,,,+91-9689725871,http://www.rakshahospital.in/
Cambridge Hospital,,,,Karnataka,560038,13.0195955,77.5419813,,,+91-7730272228,
Azad Nagar Maternity Home,,,,Karnataka,560026,12.9559644,77.5485635,,,+91-9537323131,
Gunasheela Surgical and Maternity Hospital,,,,Karnataka,560004,12.9403012,77.5764705,,,+91-8213782113,
Excel Care Hospital,,,,Karnataka,560070,12.9207314,77.5736019,,,+91-6953791362,
"Vasan Eye Care Hospital, Jayanagar",,,,Karnataka,560011,12.9292015,77.5819811,,,+91-7978844253,
Hi Tech Kidney Stone Hospital,,,,Karnataka,560001,12.9271389,77.579028,,Dornier AlphaLithotripsy Treatment; X-Rays; US Scan; Urologist Consultation,+91-8684401763,http://www.hitechkidneystonehospital.org/
Dr. Vidyananda's Surgery and Dia Centre,,,,Karnataka,560070,12.9242515,77.573217,,,+91-8771683886,
"Srushti Hospital, Bengaluru Rural",,,,Karnataka,560082,12.8981572,77.6207364,,,+91-8121974259,
Parimala Speciality Hospital,,,,Karnataka,560076,12.9004567,77.6005474,,,+91-8365180414,https://www.parimalahospital.com/
"R K Hospital, Bengaluru Urban",,,,Karnataka,560084,13.0138123,77.6354731,,,+91-8931499520,
"Prasad Eye Hospital, Bengaluru Urban",,,,Karnataka,560029,12.9356703,77.6079905,,,+91-6859164027,
Unity Lifline Hospital Pvt Ltd,,,,Karnataka,560072,12.9819768,77.5108275,,,+91-8031891759,
J.P.Nursing Home,,,,Karnataka,560096,13.0098352,77.5384723,,blood_check;general,+91-9216852086,
North Side Health Centre,,,,Karnataka,560032,13.0267995,77.5870813,,,+91-8233608931,
Dr Chaitanyas Dental Care & Implant Centre,,,,Karnataka,560032,12.9675989,77.6565533,,,+91-9483037515,
Kareem E.N.T and Multispeciality Centre,,,,Karnataka,560029,12.9188948,77.6058905,,,+91-6941810073,
Chinmaya Narayana Super Specialty Centre,,,,Karnataka,560038,12.9777106,77.6459773,,multi speciality,+91-9771853675,https://www.narayanahealth.org/
Jyothi The Lasik Vision Centre,,,,Karnataka,560004,12.9496114,77.5790786,,,+91-8335878863,
Bengaluru West Lions Hospital,,,,Karnataka,560002,12.9563042,77.5830996,,,+91-9950343018,http://dpal.kar.nic.in/Kanunu%20padakosha%20PDF%20Files/Recognised%20Hospitals.pdf
Vijayanagar Hospital,,,,Karnataka,560040,12.9716291,77.5371969,,,+91-9588460285,http://dpal.kar.nic.in/Kanunu%20padakosha%20PDF%20Files/Recognised%20Hospitals.pdf
Abhinava Eye Hospital,,,,Karnataka,560004,12.9550181,77.5683897,,,+91-7016483374,
North Star Maternity and Nursing Home,,,,Karnataka,560076,12.9067079,77.5849275,,,+91-6421196969,
"Punarjyoti Eye Hospital, Bengaluru Urban",,,,Karnataka,560002,12.9685305,77.5843965,,,+91-8451873870,
Sundar Hospital,,,,Karnataka,560084,13.0080166,77.6221479,,,+91-6490369780,
V Care Hospital,,,,Karnataka,560037,13.015884,77.5973475,,,+91-6119305034,
A.M. Hospital,,,,Karnataka,560040,12.9601022,77.5315556,,,+91-9083106098,
"Divya Drishti Eye Hospital, Vijayanagar",,,,Karnataka,560104,12.9586907,77.5352668,,Cataract Treatment; Cornea Clinic; Retina Clinic; Glaucoma Clinic,+91-8863237243,http://divyadrishtieyehospital.com/
"Shridevi Hospital, Bengaluru Urban",,,,Karnataka,560072,12.9617045,77.5217172,,,+91-8885105712,
Srinivasa Eye Hospital,,,,Karnataka,560043,13.0147224,77.6515616,,,+91-8091571509,
Spandana Hospital And Medical Centre,,,,Karnataka,560016,13.0112166,77.6743939,,,+91-9894949353,
Sreeniwasa Hospital,,,,Karnataka,560053,12.9732706,77.5725357,,,+91-8227053257,
Ashraya Medinova Pvt Ltd,,,,Karnataka,560091,12.988865,77.5078006,,,+91-7797449550,
Magadi Road Maternity Home,,,,Karnataka,560023,12.9741253,77.561823,,,+91-7487956034,
Pristine Hospital,,,,Karnataka,560086,12.9980009,77.5432779,,,+91-8757130610,http://pristinehospitals.com/
Dr Zamindar's Micro Surgical Eye Centre,,,,Karnataka,560033,13.0021978,77.6329015,,,+91-7011767748,
Vasan Eye Care Hospital,,,,Karnataka,560068,12.8980516,77.6339279,,,+91-8450685087,
Health Cottage Hospital,,,,Karnataka,560008,12.9709143,77.6321116,,,+91-6034930124,
Samastha Hospitals Pvt Ltd,,,,Karnataka,560061,12.89708,77.5473364,,,+91-7655663078,
Poornima Hospital,,,,Karnataka,560032,13.0263344,77.595128,,,+91-6800874903,
Dr.Zamindar Microsurgical Eye Centre,,,,Karnataka,560043,13.0178594,77.6547577,,,+91-9641330590,https://drzamindarseyecentre.com/
Good Shepherd Hospital,,,,Karnataka,560043,13.0328036,77.633289,,,+91-8146084363,
"Dr.Agarwal Eye Hospital, Frazer Town, Bangalore",,,,Karnataka,560005,12.9960196,77.6128413,,,+91-6294394401,
"Mamta Hospital, Bengaluru Rural",,,,Karnataka,560091,13.0377564,77.5744454,,,+91-6730464223,
S. J. Hospital,,,,Karnataka,560094,13.0360827,77.575065,,,+91-6081671851,
Republic Hospital,,,,Karnataka,560025,12.964162,77.5982255,,,+91-6208929713,
R.R. Hospital and Trauma Centre,,,,Karnataka,560078,12.9074269,77.5716318,,,+91-7826066986,
Sri Sai Eye Hospital,,,,Karnataka,560016,13.011968,77.6659168,,,+91-8230699089,
Sri Ram Speciality Hospital,,,,Karnataka,560047,12.9543777,77.6209764,,,+91-8590431404,
Zion Hospital And Research Centre Pvt.Ltd.,,,,Karnataka,560084,13.0149675,77.6354957,,,+91-7985577443,http://zionhospitals.com/
Institute Of Nephro Urology hospital,,,,Karnataka,560002,12.9619528,77.5728562,,,+91-6813483679,
Well Spring hospital,,,,Karnataka,560095,12.9425676,77.6224349,,,+91-8208452704,
Aaroyha Mandir Hospital,,,,Karnataka,560002,13.0105038,77.5502452,,,+91-6597980694,
"Punya Hospital, Bengaluru Urban",,,,Karnataka,560079,12.9862161,77.5374853,,,+91-7369679289,https://punyahospitals.com/
Sandhyashree Hospital,,,,Karnataka,560079,12.9761802,77.5261763,,,+91-6739759459,
Dr. Sailaja's Super Speciality Eye Hospital,,,,Karnataka,560043,13.0276736,77.6614188,,,+91-6450070664,
Hillside Hospital,,,,Karnataka,560070,12.9162753,77.5589544,,,+91-7312437628,
Pd Hinduja Sindhi Hospital,,,,Karnataka,560027,12.9646359,77.5926509,,,+91-9589208963,
Sri Ranga Arogyadhama,,,,Karnataka,560086,12.9986239,77.542782,,,+91-7745764800,
Brinda Hospital,,,,Karnataka,560072,12.978053,77.5115959,,,+91-7113390089,
Deepashri Hospital,,,,Karnataka,560072,12.9705902,77.5108503,,,+91-6326931791,
Rotary Eye Hospital (A Unit Of Bangalore North Rotary Trust),,,,Karnataka,560010,12.9817233,77.5549364,,,+91-6835427276,
Acharya Tulsi Jain Hospital,,,,Karnataka,560022,13.0218344,77.5567093,,,+91-9094338051,
Get Well Hospital,,,,Karnataka,560047,12.9526616,77.61503,,,+91-9582113755,
Premier Hospital,,,,Karnataka,560032,13.0241863,77.5960574,,,+91-6231443944,
Gurukripa Hospital and Health Care Centre,,,,Karnataka,560086,13.0001802,77.5461146,,,+91-8223765120,
Avian Medicare and Research Centre,,,,Karnataka,560001,13.0269276,77.6227882,,,+91-6925333974,
Vinayaka Health Care and Maternity Home,,,,Karnataka,560068,12.8919999,77.6257829,,,+91-6290564350,
Little Flower Hospital,,,,Karnataka,560016,13.0113204,77.6771966,,,+91-6419423261,
"Venkateswara Hospital, Bengaluru Urban",,,,Karnataka,560004,12.9543465,77.5755649,,,+91-9041728873,
Sai Baba Hospital,,,,Karnataka,560058,13.0093599,77.5222108,,,+91-7606288065,
"Metro Hospital, Bengaluru Rural",,,,Karnataka,560062,12.8914666,77.5612113,,,+91-6220806698,
"Madhu Hospital, Bengaluru Urban",,,,Karnataka,560079,12.9783164,77.5429603,,,+91-8086387327,
Al- Habeeb Hospital,,,,Karnataka,560045,13.0236062,77.6196139,,,+91-7701022353,
"Santhigiri Ayurveda and Siddha Hospital, Bengaluru Urban",,,,Karnataka,560030,12.9439008,77.6065864,,,+91-7503207796,https://www.santhigiriashram.org/
Little Flower Hospital,,Opposite to bus stop,,,,13.0113125,77.6771851,,,+91-6244036898,
Padmashree Diagnostics,,,,,,12.9745983,77.5436792,,,+91-8266023475,
Venus MultiSpeciality Hospital,,,,,,12.9721779,77.6807872,,,+91-9324216821,
Roopena Agrahara Government Hospital,,,,Karnataka,560068,12.9102142,77.6244654,,,+91-7273556039,
Laggere Government Hospital,,,,Karnataka,560058,13.009817,77.5231852,,,+91-6897469099,
K.C. General Hospital,,,,Karnataka,560003,12.993382,77.5694167,,,+91-7440846437,
Cure Hospital,,,,Karnataka,560032,13.0324318,77.6085263,,,+91-7708937774,
Yashas Neurocare,,,,,,12.9853993,77.5454024,,,+91-9804535326,
Focus Diagnostic Center,,,,,,12.9870634,77.549951,,,+91-7157290921,
Vittal Eye HOspital,,,,,,12.931298,77.5412566,,optometry;optometrist,+91-9402449926,
Chamundi Hi Tech Hospital,Bengaluru,,,,560068,12.9240924,77.6177848,,,+91-6205187635,
Little Flower Hospital,,,,Karnataka,560093,12.9807257,77.6823734,,,+91-6356872757,
Jeevan Hospital,,,,Karnataka,560013,12.9901305,77.6713322,,,+91-8506650300,
Vedam Ayurveda Multi Speciality Hospital,,,,Karnataka,560016,12.9946786,77.6709989,,,+91-9458066908,
Stroke Treatment Paralysis,,,,Karnataka,560043,13.0239995,77.6585299,,,+91-8744681922,
Geriatric Hospitals,,,,Karnataka,560043,13.0283977,77.6599575,,,+91-6842953740,
Pragathi Piles Hospital,,,,Karnataka,560016,12.9966313,77.671863,,,+91-6981794725,
Mahaveer Hospitals,,,,Karnataka,560016,12.9895049,77.6741439,,,+91-8600840129,
Medihope Super Specialty Hospital,,,,Karnataka,560075,12.973637,77.675186,,,+91-7189863591,
Cure N Care Hospital,,,,Karnataka,560016,12.989869,77.676589,,,+91-8011931588,
Prakruti Hospital,,,,Karnataka,560016,12.991561,77.6757833,,,+91-6894864677,
Kamadhenu Hospital,,,,Karnataka,560040,12.975501,77.534972,,,+91-6684466935,
Dr. Rajesh Hospitals Eye and Dental,,,,Karnataka,560008,12.9688989,77.6422131,,,+91-8584938097,
OJUS Multi Speciality Hospital,,,,Karnataka,560017,12.957269,77.653945,,,+91-8762184205,
Benaka Hospital,,,,Karnataka,560079,12.9835824,77.5289448,,,+91-7515606965,
"Goverment Hospital, Hosahalli",,,,Karnataka,560040,12.9744928,77.5342045,,,+91-7075868016,
Jhon's Medical Hospital,,,,Karnataka,560017,12.9635299,77.6662889,,,+91-8335288888,
Vijaya Hospital,,,,Karnataka,560072,12.96767,77.5226459,,,+91-7315689619,
Government Hospital,,,,Karnataka,560079,12.9780731,77.5251934,,,+91-7874659719,
Sriprasad Ayurveda,,,,Karnataka,560040,12.9734087,77.5462808,,,+91-9759310379,
Vidya Eye Hospital,,,,Karnataka,560040,12.9707429,77.5377684,,,+91-7558400129,
Sai Baba Hospital,,,,Karnataka,560008,12.9698194,77.6317472,,,+91-7975745934,
Shree Sai Speciality Hospital,,,,Karnataka,560071,12.9555948,77.6418006,,,+91-9627406098,
Shree Dhanvantari Ayurveda Hospital,,,,Karnataka,560040,12.9615606,77.5222312,,,+91-9048421634,
Srinivasam Cancer Care Multi Speciality Hospital,,,,Karnataka,560072,12.961509,77.523151,,,+91-8742797720,
Magdum Hospital,,,,Karnataka,560017,12.9589495,77.6603768,,,+91-7868888909,
Athoz Hospitals,,,,Karnataka,560008,12.9673428,77.6424996,,,+91-9990891658,
G.R. Hospital,,,,Karnataka,560010,12.9802303,77.5548818,,,+91-6988581904,
Sneha Horizon Hospital,,,,Karnataka,560040,12.9754301,77.5358001,,,+91-6901953097,
Jagjeevanram Hospital,,,,Karnataka,560072,12.968292,77.524492,,,+91-9404038647,
Kangroo Hospital,,,,Karnataka,560040,12.974339,77.542325,,,+91-9084349900,
Abhinav Hospital,,,,Karnataka,560023,12.9757486,77.553782,,,+91-6743365984,
Suhusannidhi Hospital,,,,Karnataka,560040,12.969102,77.534951,,,+91-9213650382,
Panchsheela Nagar Hospital,,,,Karnataka,560072,12.9745497,77.5208943,,,+91-6240484974,
ESIC Hospital,,,,Karnataka,560008,12.9693009,77.6317545,,,+91-8550624215,
Sai Ortho and Dental Centre,,,,Karnataka,560040,12.9698191,77.5360801,,,+91-8716955486,
Ammashrees Hospital,,,,Karnataka,560010,12.9794315,77.5441641,,,+91-9080606010,
Lohitha Hospital,,,,Karnataka,560008,12.963951,77.64308,,,+91-9651990225,
Government Hospital,,,,Karnataka,560072,12.9639829,77.5188899,,,+91-9987227104,
Shanthakumari Hospital,,,,Karnataka,560072,12.9637162,77.5188263,,,+91-8545965749,
Bengaluru Child Neurology and Rehabilitaion Centre,,,,Karnataka,560040,12.9735574,77.5461246,,,+91-6327376168,
Sumati Hospital,,,,Karnataka,560072,12.976379,77.524439,,,+91-9941498530,
Dr. Hemant Agrawal,,,,Karnataka,560017,12.9583212,77.659636,,,+91-8320710901,
Dr. Nothesh Child Specialist,,,,Karnataka,560040,12.975423,77.540659,,,+91-9123888605,
Swasthya Hospitals,,,,Karnataka,560071,12.9544981,77.6401572,,,+91-9178228075,
Miracle Hopital,,,,Karnataka,560017,12.958861,77.654322,,,+91-7389930234,
Sastry Memorial Hospital,,,,Karnataka,560040,12.9698787,77.5332834,,,+91-6819801721,
Sri Venkateswara Hospital,,,,Karnataka,560076,12.9056165,77.6122688,,,+91-8349015846,
Rajashri Grandhim Hospitals,,,,Karnataka,560076,12.895426,77.607662,,,+91-6877581284,
Goldage Hospital,,,,Karnataka,560068,12.8908362,77.6040715,,,+91-7725902866,
Vinayaka Hospital,,,,Karnataka,,12.93753,77.549675,,,+91-8928355732,
Unani Hospital,,,,Karnataka,560002,12.9633185,77.5790145,,,+91-9835820762,
Rahul Maternity & Child Health Centre,,,,Karnataka,560047,12.9596227,77.6146819,,,+91-9772080424,
Bangaluru Unani Hospital,,,,Karnataka,560004,12.9405198,77.5794387,,,+91-8081707269,
Medcare Hospital,,,,Karnataka,560004,12.953049,77.574203,,,+91-7988074175,
Sumanjara Hospital,,,,Karnataka,560019,12.9417439,77.5601782,,,+91-8516973300,
Corporation Hospital,,,,Karnataka,560018,12.961345,77.560893,,,+91-6958971406,
Mitralaya Hospital,,,,Karnataka,560004,12.945591,77.5712865,,,+91-8629104928,
People Tree Hospitals,,,,Karnataka,,12.942076,77.553598,,,+91-7997287448,
Apollo Specialty Hospital,,,,Karnataka,560011,12.936459,77.584422,,,+91-6150978959,
Government Hospital,,,,Karnataka,560018,12.9609494,77.5613939,,,+91-6641803894,
Verna Hospital,,,,Karnataka,560050,12.940404,77.5580361,,,+91-7956510073,
"Government Hospital, Banglore",,,,Karnataka,560026,12.9587464,77.5573456,,,+91-9175514179,
Royan Maternity & Child Welfare Centre,,,,Karnataka,560018,12.960311,77.568274,,,+91-8620680085,
Alisa Eye Hospital,,,,Karnataka,560047,12.9652304,77.6104334,,,+91-8632451575,
Shekhar Hospital,,,,Karnataka,560019,12.945944,77.567404,,,+91-6932382271,
Government Hospital,,,,Karnataka,,12.949104,77.563226,,,+91-8394351752,
Jeevini Sarvodaya Hospital,,,,Karnataka,560019,12.9415883,77.5641917,,,+91-8133221096,
Mahaveer Ortho Care Speciality Centre,,,,Karnataka,560004,12.9569684,77.5695045,,,+91-6387747011,
Raghavendra Hospital,,,,Karnataka,,12.938787,77.554296,,,+91-8013722299,
Apaara Multi Speciality,,,,Karnataka,,12.938453,77.551329,,,+91-9262491108,
Khincha Orthopaedic Centre,,,,Karnataka,560004,12.939882,77.573989,,,+91-9866831726,
Parameshwari Hospital,,,,Karnataka,,12.948971,77.563543,,,+91-9089217607,
Drishti Nethralaya,,,,Karnataka,,12.9422541,77.5506328,,,+91-7712979278,
Furtde Hospital,,,,Karnataka,560002,12.9654649,77.5894756,,,+91-9816425283,
Manavarthapet Pregnancy Hospital,,,,Karnataka,560053,12.9702549,77.5734571,,,+91-7714829878,
Trinity Hospital and Heart Foundation,,,,Karnataka,560004,12.9434996,77.5796583,,,+91-9869332987,
Spandana Heart Centre,,,,Karnataka,560018,12.957222,77.566486,,,+91-8981885867,
Shas Eye Care,,,,Karnataka,560047,12.960296,77.614714,,,+91-7239600054,
Matha Pitha Hospital,,,,Karnataka,560070,12.9420276,77.575634,,,+91-9435373382,
ESI Hospital,,,,Karnataka,560053,12.972126,77.573351,,,+91-7735836549,
Herige Hospital,,,,Karnataka,560018,12.960972,77.5609696,,,+91-6188310773,
Gleneagles Global Hospitals,,,,Karnataka,560025,12.9654497,77.5999044,,,+91-9211953454,
Punarjyoti Eye Hospital,,,,Karnataka,560002,12.9658901,77.589928,,,+91-9773006875,
Swastik Eye Hospital,,,,Karnataka,560004,12.9479647,77.5696395,,,+91-9433265636,
Dave Gray Hospital,,,,Karnataka,560004,12.9458294,77.5799015,,,+91-9920631487,
Dr. Rudrappa's Hospital,,,,Karnataka,560027,12.9650303,77.5954946,,,+91-7091794845,
Shishuka Children's Speciality Hospital,,,,Karnataka,560043,13.0193799,77.6535352,,,+91-7743859711,
Skin Remediez,,,,Karnataka,560043,13.0091103,77.6579493,,,+91-7047731685,
Navya Hospital,,,,Karnataka,560024,13.0524836,77.6120857,,,+91-9063848423,
Ovum Birthing Centre,,,,Karnataka,560043,13.0201491,77.6516628,,,+91-9385369583,
Icon Hospital,,,,Karnataka,560024,13.0528211,77.6041042,,,+91-8454126196,
Medicure Hospital,,,,Karnataka,560043,13.0283463,77.6298629,,,+91-9704190484,
Motherhood Women & Children Hospital,,,,Karnataka,560043,13.0102697,77.6525909,,,+91-7387710695,
Feran Hospital,,,,Karnataka,560043,13.0263661,77.6302142,,,+91-9948790725,
Super Specialty Eye Hospital,,,,Karnataka,560043,13.0166883,77.6604049,,,+91-8852009637,
Endocrine Speciality Centre,,,,Karnataka,560043,13.013761,77.648529,,,+91-6105337301,
Anjani Women's Day Care Hospital,,,,Karnataka,560043,13.0188119,77.647187,,,+91-8048436606,
CDEC Hospital,,,,Karnataka,560043,13.026989,77.6281742,,,+91-6531900284,
Pranam Dental Hospital,,,,Karnataka,560045,13.029101,77.620568,,,+91-6186234516,
Milaan Hospital,,,,Karnataka,560043,13.0109537,77.6476418,,,+91-9421308438,
Cloudnine Hospital,,,,Karnataka,560043,13.020084,77.654053,,,+91-6421185506,
Rajalakshmi Multi Specialty Hospital,,,,Karnataka,560078,12.916588,77.579602,,,+91-9995663502,
Lavis Hospital,,,,Karnataka,560029,12.925461,77.609021,,,+91-7429680629,
Sevakshetra Hospital,,,,Karnataka,560070,12.9215119,77.5724702,,,+91-7858939876,
Perfetual Help Hospital,,,,Karnataka,560011,12.9055752,77.5425258,,,+91-9904995846,
Shree Vaishnavi Heart Centre and Multi Speciality,,,,Karnataka,560076,12.9121632,77.6098276,,,+91-9472800495,
Marigold Hospital,,,,Karnataka,560076,12.9136262,77.6045369,no,,+91-9541928717,
Bharathi Hospitals,,,,Karnataka,560050,12.9334096,77.5622345,,,+91-9821024353,
Devi Hospital,,,,Karnataka,560034,12.9239445,77.6198634,,,+91-9077931625,
Devagiri Hospital,,,,Karnataka,560070,12.924153,77.565797,,,+91-9028041194,
Pothys Hospital,,,,Karnataka,560076,12.9159348,77.6034098,,,+91-8111210501,
Center for Liver Disease Hospital,,,,Karnataka,560078,12.916234,77.593019,,,+91-9213986733,
Sudha Prevention Centre,,,,Karnataka,560085,12.9254569,77.5467101,,,+91-8228331871,
Sahasra Hospital,,,,Karnataka,560082,12.920651,77.5746118,,,+91-7091974651,
Health India Hospital,,,,Karnataka,560029,12.9265183,77.6090995,,,+91-7506087192,
Shanti Hospital,,,,Karnataka,560070,12.9202202,77.5772991,,,+91-6824393813,
Spurthy Hospital,,,,Karnataka,560029,12.923857,77.611355,,,+91-7353881851,
Apollo Cradle Maternity & Children's Hospital,,,,Karnataka,560011,12.916885,77.585258,,,+91-6386747727,
St. Martha's Hospital,,,,Karnataka,560061,12.906113,77.542548,,,+91-6239338101,
Chinmaya Hrudayalaya,,,,,,12.9778121,77.6459447,,,+91-8529946241,
Baptist Hospital,,,,Karnataka,,13.0362022,77.5896998,,,+91-8767794994,
Esi Hospital Peenya 1st Stage,,,,Karnataka,,13.0280728,77.5231858,,,+91-6819771796,
Nayanalaya Super Speciality Eye Care Centre,,,,Karnataka,,13.006795,77.571159,,,+91-6723467982,
Srinidhi Health Centre,,,,Karnataka,,13.005821,77.5725746,,,+91-8088811427,
Orthopedic & Eye Care Center,,,,Karnataka,,13.0054934,77.5719519,,,+91-9725136072,
ESI Hospital,,,,Karnataka,,13.004596,77.5540033,,,+91-7851463533,
Ramani Orthopaedic Hospital,,,,Karnataka,,13.0044307,77.5785238,,orthopaedics,+91-8916412519,
Atharva Ayurdhama Ayurvedic Hospital,,,,Karnataka,,13.004314,77.547749,,,+91-6115998090,
RICH CARE HOMEOPATHY,,,,Karnataka,,13.0015461,77.5721683,,,+91-7582692335,
Poornayu Ayurveda Hospital,,,,Karnataka,,12.998238,77.551173,,,+91-6011805539,
Appllo Diagnostic,,,,Karnataka,,12.9981064,77.6008126,,,+91-6200492348,
Supra Diagnostics Spine Care And Ortho Care Hospital,,,,Karnataka,,12.9969996,77.5730038,,,+91-6899049063,
K.C.General Hospital,,,,Karnataka,,12.9960244,77.5693714,,,+91-7112862644,
ESIC Model Hospital,,,,Karnataka,,12.9916924,77.5539007,,,+91-9727736703,
Government Hospital,,,,Karnataka,,12.9905045,77.5566355,,,+91-6180949959,
Esi Hospital Bangalore,,,,Karnataka,,12.9904985,77.5530924,,,+91-6788087577,
Government Hospital,,,,Karnataka,,12.9844963,77.5551801,,,+91-9162127008,
Sun Orthopaedic center,,,,,,13.0332219,77.5549236,,,+91-9556160374,
St. Johns hospital Emergency ward,,,,,,12.9305937,77.6186159,,,+91-9381961984,
CUPA Small Animals Hospital,,,,,,13.026494,77.5933758,,,+91-6861456606,
Healing Hands Advanced Physiotherapy Clinic,Bangalore,4th Cross Road,"64/2, Sarakki Main Rd, Sarakki Nagar,",,560078,12.9128623,77.5714903,,physiotherapy;physiotherapist,+91-7865133412,
Narayan Multispeciality clinic,,,,,,12.9288444,77.5828703,,,+91-7716903890,
clinic,,,,,,12.9395279,77.586437,,,+91-8414587057,
Kidwai Cancer Institute Radiation Block,,,,,,12.9355966,77.5971575,,,+91-9727347087,
Altius Hospital,,,,,,13.0344639,77.6291947,,,+91-9207476772,
My Dentist,,,,,,12.9429852,77.5460604,,dentist,+91-9902431135,
Suraksha Hospital,,,,,,13.048083,77.628791,,,+91-6096930643,
Janani Clinics,"Basaveshwara Nagar, Bangalore","8th B Main Road, 3rd Stage, 2nd Block, Basaveshwaranagara",629,,560079,12.9918503,77.5437825,,gynaecology;orthodontics;dentist;vaccination;plastic_surgery,9036817877,
Lotus Hospital,bangalore,"24th Main Rd, Vanganahalli, 1st Sector, HSR Layout 5th Sector, Bengaluru,",,,560103,12.9144825,77.6491563,,,+91-6247424865,
Ayaans Hospital,,,,,,12.9782618,77.6435889,,gynaecology,+91-7418939173,
NIMHANS Department Of Psychiatric and Neuro Rehabilitation,,,,,,12.9400516,77.5954768,,,+91-6896069907,
Nimhans Mr-pet Center,,,,,,12.9396498,77.5967825,,neurology,+91-9415553036,
NIMHANS Physiotherapy Center,,,,,,12.9402037,77.5954721,,,+91-9739393990,
Cadabam's Hospitals,,,,,,12.906071,77.5869281,,,+91-7645439440,
"Fortis Hospital, Nagarbhavi",,,,Karnataka,560072,12.9596032,77.5112481,,multi speciality,+91-8116614205,https://www.fortishealthcare.com/
MEDSTAR Speciality Hospital,,,,,,13.058128,77.5860405,,,+91-8803205877,
Span Health Center,,,,,,12.9774449,77.6271297,,,+91-8542779910,
Uvin Care Hospital,,,,,,12.9778346,77.6282837,,,+91-8378639255,
Unknown Hospital,,,,,,12.8933895,77.6368614,,,+91-8635078185,
Bengaluru City Hospital,,,,,,12.9075935,77.5707809,,,+91-7413387181,
Aspire Hospital,,,,,,12.9971683,77.6145878,,,+91-6540318562,
Sai Thunga Hospitals,,,,,,12.9240012,77.6481809,,,+91-7726694731,
Chirag Global Hospital,,,,,,12.9058817,77.6037517,,,+91-7905873589,
PMC Hospital,,,,,,13.0065047,77.5545009,,,+91-9899682036,
New Varalakshmi Hospital,,,,,,12.9988382,77.5550964,,,+91-7400148610,
Apollo Cradle Children's Hospital,,,,,,13.002768,77.5536287,,,+91-7689935750,
Netradhama,,,,,,12.99743,77.5510293,,,+91-6656839892,
St Philomenas Hospital OPD Building,,Mother Teresa Road,4,,560047,12.9658506,77.6109015,,,08040164346;08040164300,https://www.stphilomenashospital.com/
Hiremath Hospital,,,,,,12.9754354,77.5358964,,,+91-8281888872,
Hiremath Hospital,,,,,,12.9754353,77.5358964,,,+91-6807549754,
Gawai Hospital,,,,,,12.9962739,77.6075693,,,+91-6373892062,
Hiremath Hospital,,,,,,12.9754353,77.5358964,,,+91-8906544510,
Beams Hospitals Private Limited,Bengaluru,"640, 12Th Main, 80 Ft Road, 4Th Block, Koramangala",640,Karnataka,560034,12.9342277,77.6296323,,,+91-8777607977,
H Siddiah Referral Hospital,,,,,,12.9569057,77.5824398,,,+91-8434354280,
Aster RV Hospital,bangalore,"24th Main Road, 1st Phase, J P Nagar",CA-37,,560078,12.9114283,77.5849747,,,08046414641,https://www.asterhospitals.in/hospitals/aster-rv-bangalore
Chinmaya Mission Hospital,,,,,,12.9779337,77.6461885,yes,,+91 80 2502 6100,https://www.chinmayamission.com/what-we-do/institutes/chinmaya-mission-hospital-chinmaya-mission-of-nursing/
KLE Dental College,,,,,,13.0305079,77.535667,,,+91-9679634466,
Health Centre,,,,,,13.0157723,77.5638038,,,+91-8603328863,
K C General Hospital,,,,Karnataka,560003,12.9950532,77.5697431,,,+91-8419197983,
St Marthas Hospital,,,,Karnataka,560001,12.9708175,77.5857431,yes,,+91-6733558010,https://www.narayanahealth.org/
Vydehi Superspeciality Hospital,Bengaluru,Vittal Mallya Road,2,Karnataka,560001,12.9681553,77.5950421,,multi speciality,+9180 2227 7979,http://www.vsshospital.com/
Jayanagar General Hospital,,,,Karnataka,570014,12.9261175,77.592549,,,+91-8049516262,
Hospital Complex,,,,,,12.9382871,77.5899069,,,+91-6558237807,
Sri Jayadeva Institute Of Cardiology,,Bannerghatta Road,,Karnataka,560041,12.9185194,77.599254,yes,cardiology,+91-8257888995,
HMT Hospital,,,,,,13.04958,77.5509219,,,+91-7499879537,
BEL Hospital,,,,Karnataka,560013,13.0503387,77.5567647,,,+91-8659939873,
"Fortis Hospitals, Bannerghatta Road",,,,Karnataka,560076,12.8947511,77.5985816,yes,multi speciality,+91-7180873079,www.fortishospitals.com
Apollo Hospital,Bangalore,Bannerghatta Road,,Karnataka,560076,12.89632,77.5983495,yes,multi speciality,+91-6831637488,www.apollohospitalsbangalore.com
Bhagwan Mahaveer Jain Hospital,,,,,,12.9914884,77.5952993,yes,,+91-9502375542,
Bowring and Lady Curzon Hospitals,"Shivaji Nagar, Bangalore",Lady Curzon Road,,Karnataka,560001,12.9830115,77.6047116,,Bio-Chemistry; Cardiology; Cardiothoracic Surgery; Dermatology; ENT; General Medicine; General Surgery; Micro-Biology; Neurology; Ophthalmology; Orthopedics Pathology; Pediatric Surgery; Plastic Surgery; Psychiatry; Pulmonology; Radio-Diagnosis;,+91-80-25591325,https://sabvmcri.karnataka.gov.in/
Sir Haji Ismail Gosha Sait Hospital,"Shivaji Nagar, Bangalore",Venkataswamy Naidu Road,,,,12.9837175,77.5998896,,,+91-8029147900,
Government Veterinary Hospital,,,,,,12.9641529,77.5676947,,,+91-8058549662,
Railways Hospital,,,,,,12.9798353,77.5651105,,,+91-7068970376,
Bangalore Baptist Hospital,Bangalore,Bellary Road,,Karnataka,560024,13.034555,77.5906028,yes,,08022024700,https://www.bbh.org.in/
ESI Hospital,,,,,,12.9713479,77.6367243,,,+91-8254249217,
Rajshekhar Hospital,bangalore,"9th Cross Road, Phase 1, Sarakki Layout, JP Nagar",21,Karnataka,560078,12.9110143,77.5797725,yes,,080 4252 7555,https://www.rajshekarhospital.com/
"Sparsh Hospital For Advanced Surgeries, Bengaluru Urban",Bangalore,Infantry Road,,Karnataka,560001,12.983283,77.594772,,,+91-8613904954,https://www.sparshhospital.com/
"Manipal Hospital, Bengaluru Urban",,,,Karnataka,560017,12.9587074,77.6490296,yes,,+91-6077941216,
Radhakrishna Multispeciality Hospital,bangalore,"Sunrise Towers, 30th crs JP Rd. Girinagar.,opp Canara Bank",3-4,Karnataka,560085,12.9409612,77.5455617,yes,,080 2642 2977,
Rajalakshmi Multi Speciality Hospital,,,,,,12.9164672,77.5795714,,,+91-9816570273,
Manipal Hospital,,,,,,12.9585777,77.6481409,,,+91-7004728198,
Indiranagar Government Hospital,,,,,,12.9829238,77.6446972,,,+91-9487649046,
Isolation Hospital,,,,,,12.9839262,77.6436191,,,+91-8492730894,
Epidemic Disesase Hospital,,,,Karnataka,560002,12.9864155,77.6437586,,,+91-7338839072,
Employees' State Insurance Corporation Model Hospital,,,,,,12.9909528,77.5534579,yes,,+91-9382138876,
"Vittala International Institute Of Ophthalmology, Hosakerehalli",,,,Karnataka,560085,12.9308127,77.5412224,yes,,+91-7930239256,
ISRO Employees Hospital,,,,,,12.966082,77.656317,,,+91-7848200711,
Ramaiah Memorial Hospital,,,,Karnataka,560054,13.0282176,77.569775,yes,,+91-7075291741,https://msrmh.com/
Hosmat Hospital,,,,Karnataka,560025,12.9691251,77.6133228,yes,,+91-7981462932,
Victoria Hospital,,,,,,12.9634957,77.5736948,yes,,+91-7311113978,
Manipal Hospital,,,,Karnataka,560024,13.050953,77.5938654,yes,,+91-9325194059,
Dasappa Maternity Hospital,,,,Karnataka,560002,12.9643477,77.5845256,yes,,+91-6347442362,
Isolation Hospital,,,,,,12.9858246,77.6429529,no,,+91-9436012922,
Sarvodaya Hospital,,,,Karnataka,560079,12.9803798,77.5390159,yes,,+91-8160960791,
Dasarahalli Referral Hospital,,,,Karnataka,560040,12.9773598,77.5428202,,,+91-6523359550,
Nethra Eye Hospital,,,,Karnataka,560094,13.0271503,77.5768623,,,+91-9869273210,
Kidwai Memorial Institute of Oncology,,,,Karnataka,560 029,12.936526,77.5981388,yes,oncology,+91-7380116229,https://www.kidwai.kar.nic.in/
P.D. Hinduja Sindhi Hospital,,,,Karnataka,560027,12.9644217,77.5926381,yes,,+91-9856636017,https://www.hindujasindhihospital.com/
Nmpc Hospital,,,,Karnataka,560043,13.0224158,77.6580401,yes,,+91-8913228087,
Shri Krishna Sevashrama Hospital,Bangalore,,,Karnataka,560041,12.9173497,77.5851714,,,+918022441631,http://www.sks-hospital.org/
Sreerampura Referal Hospital,,,,Karnataka,560010,12.9907432,77.5649082,,,+91-7122767891,
HAL Hospital,,,,,,12.9623685,77.6664034,yes,,+91-9106927513,
Pro MED Hospital,,,,Karnataka,560070,12.9294355,77.564005,,,+91-7876885783,
Apollo Speciality Hospital,,,,Karnataka,560011,12.9362818,77.5843424,,Cardiac surgery; General and Gastro-intestinal surgery; Gynecology; Pediatric surgery; Thoracic surgery; Urology; Colorectal surgery; Cancer surgery; Orthopedics; Neurosurgery and Ear; Nose and Throat surgery,+91-8071758224,https://www.apollohospitals.com/
"Sevakshetra Hospital, Bengaluru Urban",Bangalore,27th Cross,,Karnataka,560070,12.9216889,77.5721755,yes,,+91-7932752437,
Netradhama Hospital,,Kanakapura Road,,,,12.9252873,77.5774052,yes,,+91-8805079148,
The Eye Foundation,Bangalore,,,Karnataka,560103,12.9233474,77.6724111,,ophthalmology,+91-7823436186,https://www.theeyefoundation.com/new/
Subbaiah Hospital,Mathikere,MS Ramaiah Road,,Karnataka,560054,13.0302068,77.560704,yes,,+91-7560107206,
"Fortis Hospitals Limited, Bengaluru Urban",Bengaluru,Cunningham Road,,Karnataka,560052,12.9884913,77.5945424,yes,,+91-8255207324,https://www.fortishealthcare.com/
ESI Hospital,,,,,,12.9952564,77.6527138,,,+91-8087513239,
Milann Fertility Center,,12th Cross,4,,,12.9788013,77.6380849,,,+91-8075451726,
Sanjeevani Hospital,,,,Karnataka,560086,13.0116917,77.5438731,,,+91-8402670317,https://www.sanjeevinihospital.com/
Dr. Agarwal's Eye Hospital,,,,,,12.9103592,77.6004551,,,+91-8635686454,
Sanjay Gandhi Accident and Trauma Hospital,,,,,,12.9356389,77.5935945,yes,,+91-6630183336,
Sanjay Gandhi Accident and Trauma Hospital,,,,,,12.9357711,77.5939433,yes,,+91-9531351425,
Greenview Hospital,,,,,,12.9191928,77.6381223,,,+91-9419656955,
Leprosy Hospital,,,,,,12.9744546,77.5640222,,,+91-8053181210,
Annasawmy Mudaliar General Hospital,,,,Karnataka,560005,12.9999803,77.6144986,,,+91-7290917809,
Arth Ayurveda World,Bangalore,13th Main Road,3367/A,,560008,12.9685282,77.6457748,,ayurveda,+91-8339528440,
Indicus,,2nd Cross Road,,,560043,13.0146094,77.6464563,,,+91-6002057164,
Fortis La Femme Hospital,,,,Karnataka,560025,12.9657452,77.6097161,,,+91-6432469870,
Shyamala Hospital,Bangalore,Cambridge Road,17/4,Karnataka,560008,12.9714272,77.627494,no,,+91-8562884567,
Medicare Diagnostics,,,,,,13.0285228,77.5587301,,,+91-8420283362,
Abhaya Hospital,,,,Karnataka,560027,12.9462798,77.5947839,,Neuro Psychiatry; Neuro Surgery; Oncology; Orthopaedics; Joint Replacements; General Surgery,+91-7211499428,https://www.abhayahospital.org/
MS Diabetes Speciality Center,,,,,,12.9807106,77.646011,,,+91-6159848268,
BBMP Maternity Hospital,,,,,,12.9491979,77.596808,,,+91-8983387719,
Ramakrishna Clinic,"Gandhi Nagar, Bangalore",4th Cross,,,,12.978694,77.5744614,no,,+91-6604696157,
ESI Hospital,,,,,,12.9279948,77.5894064,,,+91-8834599153,
Apollo Hospital,,,,,,12.9883152,77.5726942,,,+91-6196533811,
Supra Hospital,,,,Karnataka,560079,12.992849,77.5386619,,,+91-9213148268,http://www.panaceahospital.com/
GM Hospital,"Basaveshwara Nagar, Bangalore","8th Main, 3rd Stage",334,,560079,12.9929909,77.5387177,yes,,+91-6398633874,
Sakhi Hospital (A Unit Of Prasad Healthcare Services),,,,Karnataka,560076,12.9053477,77.603209,,gynaecology,+91-7200886554,
Prashanth Hospitals,,,,Karnataka,,12.9391883,77.5513126,,,+91-8589644644,
Vagus Super Speciality Hospital,Bengaluru,18th Cross Road,"6,7,8",Karnataka,560003,13.0084773,77.5684217,,multi speciality,080-23569970,https://www.vagushospital.com/
Ovum Hospitals,,8th Main Road (west),,,"560043,",13.0171298,77.6432944,,,+91-8356195144,
Unknown Hospital,,,,,,13.0546111,77.5915016,,,+91-9691848896,
ChanRe Rheumatology And Immunology Center And Research,,,,,,12.9955667,77.5354224,,,+91-8489487845,
Gopala Eye Care Centre,,,,,,12.9883622,77.5343261,,,+91-8252286612,
Sharada Medicals,,8th E Main Road,,,560043,13.0152635,77.6467105,,general,+91-9158553982,
Halasuru Referal Hospital,,,,Karnataka,560008,12.973692,77.6266773,,,+91-8872332928,
Manipal Hospital,,,,Karnataka,560052,12.9882084,77.5921572,,,+91-6603411522,https://www.vikramhospital.com/
BBMP Primary Health Center,,,,,,12.9591543,77.6464476,,,+91-6926835178,
The Fracture and Orthopaedic Clinic,,,,,,13.0081737,77.5634644,,,+91-6981223658,
CSI Hospital,,,,Karnataka,560051,12.991305,77.6011314,,,+91-7812216834,http://csihospitalblr.org
Government Hospital,,,,,,12.9490229,77.6199247,,,+91-8337116857,
Sagar Hospitals,,,,Karnataka,560041,12.9279005,77.5998446,yes,,08042888888,http://www.sagarhospitals.in/
Sagar Hospital,,,,,,12.9078674,77.5651623,,,+91-7741480212,
Command Hospital (Air Force),,,,Karnataka,560007,12.9638649,77.6279636,,,+91-7596559693,
St. Philomena's Hospital,bangalore,"Mother Theresa Rd, Vivek Nagar Post, Near Life Style, Xavier Layout, Victoria Layout",4,Karnataka,560047,12.9649568,77.6111375,,,080 4016 4433,stphilomenashospital.org
Government Maternity Hospital,,,,,,12.9377267,77.5697859,,,+91-8621465072,
HCG Cancer Hospital,Bengaluru,P. Kalinga Rao Road,8,Karnataka,560027,12.9637737,77.5896833,,,+918040206000,https://www.hcgoncology.com/
Al-Ameen Hospital,,,,Karnataka,560001,12.989883,77.5942601,,,+91-6930837776,
St. Theresa's Hospital,,Dr Rajkumar Road,,Karnataka,560010,13.0067504,77.5529489,,,+91-6574721151,
Life Hospital,,,,,,12.9756177,77.6470614,,,+91-8293094836,
South City Hospital,,,,,,12.9496516,77.5803074,,,+91-6243498978,
Manipal Hospitals,,,,,,12.9199685,77.6652549,yes,,+91-9467221020,
Agadi Hospital,,,,Karnataka,560027,12.9492019,77.5977936,,,+91-6321976802,
Sparsh Hospital,Bengaluru,Tumkur Road,,,560022,13.0277509,77.5429924,,,00919019108108,https://www.sparshhospital.com/
Unknown Hospital,,,,,,12.8980981,77.6338265,,,+91-8158663923,
BMS Hospital,,,,Karnataka,560019,12.9413364,77.5674679,,,+91-9776439721,
M C Modi Eye Hospital,,,,Karnataka,560086,12.9980069,77.5459005,,,+91-8983025728,http://www.modieyehospital.com/
Unknown Hospital,,,,,,13.0177672,77.5417058,,,+91-7786283350,
Puneeth Rajkumar Multispeciality Hospital,,,,,,12.9414292,77.5226387,,,+91-8988866002,
"HOSMAT Hospital, Kalyan Nagar",Bangalore,Hennur Main Road,1,,560043,13.028489,77.6325562,,,+91-9448519601,https://hosmathospitals.com
Natus Woman and Children Hospital,,,,,,12.9427199,77.525514,,,+91-8457445113,
JC Nagar Municipal Hospital,,,,Karnataka,560006,13.0099309,77.5941222,,,+91-9185795623,
Government Homeopathic Hospital,,,,Karnataka,,12.9830337,77.5365274,,,+91-9618466308,
Dr. P.R. Desai Hospital Pvt Ltd,,,,Karnataka,560001,12.9863583,77.5792111,,,+91-9322637230,
Manipal Hospital Yeshwantpur,Bengaluru,"Brigade Gateway, Beside Metro Cash and Carry West, Malleshwaram",26/4,Karnataka,560020,13.0142942,77.5560784,yes,,080 3989 8969,https://www.columbiaasia.com/
"Shifa Hospital, Bengaluru Urban",,Queen's Road,,Karnataka,,12.9900156,77.5989689,,,+91-9447164950,http://dpal.kar.nic.in/Kanunu%20padakosha%20PDF%20Files/Recognised%20Hospitals.pdf
Diacon Hospital,,,,Karnataka,560010,13.0037724,77.5498285,,,+91-8817945276,
Fortis Hospital,,,,Karnataka,560086,13.0022012,77.5491011,,,+91-9403940819,
Aster CMI Hospital,,,,,,13.0545318,77.5918707,,,+91-6340343096,
Cloudnine,,,,,,12.9244197,77.6724971,,maternity,+91-6448561571,
Unknown Hospital,,,,,,12.9849552,77.556924,,,+91-7026330453,
Unknown Hospital,,,,,,13.0011093,77.5639446,,,+91-8738172494,
People Tree Hospitals,bangalore,"Tumkur Road, Opp. Taj Vivanta, Goraguntepalya",2,Karnataka,560022,13.0282887,77.5391464,,,+9180 4959 9999,https://www.peopletreehospitals.com/
Charaka Super Speciality Hospital,,,,,,12.9896386,77.6021916,,,+91-6199489360,
Unknown Hospital,,,,,,13.0058093,77.5694388,,,+91-9637913035,
Phoenix Hospital,,,,,,12.9166101,77.6450517,yes,,+91-8886067480,
ESI Hospital Malleshwaram Branch,,,,,,13.0151199,77.5600013,,,+91-6169866953,
Bhoomi Diagnostics,,,,,,12.9116986,77.6495441,,,+91-8207528382,
Narayana Multispeciality Hospital,,,,Karnataka,560102,12.9082086,77.6435134,,,+91-6623719994,https://www.narayanahealth.org/patients/locations/Bengaluru
Rainbow Children's Hospital,Bengaluru,Bannerghatta Road,178/1 & 178/2,,560076,12.9034004,77.6007617,yes,paediatrics;gynaecology,+91-8945620701,https://www.rainbowhospitals.in/our-centre/bengaluru/bannerghatta
Suguna Hospital,,Dr Rajkumar Road,,Karnataka,560010,12.9882302,77.5600393,yes,,+91-9376209474,
Dr Agarwal's Eye Hospital,,,,Karnataka,560025,12.9569001,77.6047605,no,,+91-7548689928,
SS Sparsh Hospital,,,,,,12.9264187,77.521673,,,+91-6709847189,
BBMP Hospital,,,,,,12.9949885,77.5937862,,,+91-8508109078,
Unknown Hospital,,,,,,12.9609247,77.5611731,,,+91-6221407766,
Jnana Sanjeevini,,,,Karnataka,560078,12.9162232,77.5890151,,,+91-6292025747,
Brains Super Speciality Hospital,,,,,,12.9478411,77.5924773,,,+91-8829424779,
Vasavi Hospital,,,,,,12.9031532,77.5603082,,,+91-6946678691,
ESI Hospital Peenya,,,,,,13.0249864,77.530936,,,+91-7917245221,
Rainbow Childrens Hospital,Bengaluru,Sarjapura Road,3/4,,560103,12.9202359,77.6674739,yes,gynaecology;child_psychiatry;paediatrics;otolaryngology;fertility;neonatology;vascular_surgery;physiatry,+91 08062261218,https://www.rainbowhospitals.in/
Safa Medicure Hospital,,,,,,12.9447394,77.5964228,,,+91-6804937269,
Rangadore Memorial Hospital,,DV Gundappa Road,,Karnataka,560004,12.9538911,77.5711462,yes,,+91-7028755944,
Trustwell Hospitals,,Jayachamaraja Wodeyar Road,,Karnataka,560002,12.9606538,77.5840403,,,+91-9510089448,https://trustwellhospitals.com/
BEML Hospital,,,,,,12.9712142,77.6651646,,,+91-7403098505,
Government Maternity Hospital,,,,,,13.0214559,77.553599,,,+91-6037809095,
Vanivilas Women and Children Hospital,,,,Karnataka,560002,12.9614692,77.5736889,yes,,+91-8659829532,
Minto Eye Hospital,,,,,,12.9610731,77.572289,yes,,+91-8266812080,
M S Ramaiah Hospital,,,,,,13.0297293,77.5685912,yes,,+91-7637427680,
Faculty Of Dental Sciences,,,,,,13.0292222,77.5693751,yes,,+91-8778742465,
St.John's Medical College Hospital,Bangalore,Sarjapur Road,,Karnataka,560034,12.929648,77.6185932,yes,multi speciality,+91-8729924468,http://www.stjohns.in/hospital/#sthash.1e07FWcp.dpuf
